<?xml version="1.0" encoding="UTF-8"?>
<osm version="0.6" generator="Overpass API 0.7.62.11 87bfad18">
<note>The data included in this document is from www.openstreetmap.org. The data is made available under ODbL.</note>
<meta osm_base="2026-05-06T03:25:00Z"/>

  <node id="30037905" lat="12.7817912" lon="80.0124246"/>
  <node id="30037906" lat="12.7844383" lon="80.0136263"/>
  <node id="30037907" lat="12.7913358" lon="80.0176174"/>
  <node id="30037908" lat="12.8011992" lon="80.0240533"/>
  <node id="30037909" lat="12.8101756" lon="80.0298912"/>
  <node id="30037912" lat="12.8263195" lon="80.0410537"/>
  <node id="30037913" lat="12.8266893" lon="80.0413959"/>
  <node id="30037914" lat="12.8279463" lon="80.0426971"/>
  <node id="349187035" lat="12.7958107" lon="80.0207528">
    <tag k="highway" v="traffic_signals"/>
  </node>
  <node id="410457079" lat="12.8251658" lon="80.0411546"/>
  <node id="410463349" lat="12.8194899" lon="80.0362326"/>
  <node id="415884745" lat="12.8191590" lon="80.0362288"/>
  <node id="415884747" lat="12.8197774" lon="80.0366658"/>
  <node id="415884748" lat="12.8224688" lon="80.0386170"/>
  <node id="415884749" lat="12.8260750" lon="80.0411984"/>
  <node id="415884750" lat="12.8266718" lon="80.0416785"/>
  <node id="415884754" lat="12.8333186" lon="80.0484367"/>
  <node id="415885652" lat="12.8220581" lon="80.0383133"/>
  <node id="415885801" lat="12.8304273" lon="80.0457796"/>
  <node id="415885802" lat="12.8266106" lon="80.0417906"/>
  <node id="415885803" lat="12.8252438" lon="80.0405447"/>
  <node id="415885804" lat="12.8262926" lon="80.0414645"/>
  <node id="415885805" lat="12.8252554" lon="80.0407026"/>
  <node id="415885806" lat="12.8220085" lon="80.0383941"/>
  <node id="415885811" lat="12.8260002" lon="80.0412492"/>
  <node id="415885865" lat="12.8250800" lon="80.0405705"/>
  <node id="415885886" lat="12.8264712" lon="80.0415032"/>
  <node id="415886016" lat="12.8214825" lon="80.0487220"/>
  <node id="415886023" lat="12.8244528" lon="80.0447245"/>
  <node id="415886043" lat="12.8243861" lon="80.0473068"/>
  <node id="792253696" lat="12.8189878" lon="80.0361038"/>
  <node id="792253697" lat="12.8190831" lon="80.0359488"/>
  <node id="792253700" lat="12.8194368" lon="80.0352917"/>
  <node id="792253820" lat="12.8261425" lon="80.0412456"/>
  <node id="792253821" lat="12.8127592" lon="80.0315608"/>
  <node id="792277669" lat="12.8020129" lon="80.0245884"/>
  <node id="792277670" lat="12.7944550" lon="80.0196251"/>
  <node id="792277671" lat="12.7923298" lon="80.0182369"/>
  <node id="792277672" lat="12.7883723" lon="80.0158471"/>
  <node id="792277673" lat="12.7863812" lon="80.0147238"/>
  <node id="792277716" lat="12.7863879" lon="80.0149501"/>
  <node id="792277732" lat="12.8093662" lon="80.0295908"/>
  <node id="792277945" lat="12.7876922" lon="80.0157077"/>
  <node id="792277946" lat="12.7892721" lon="80.0165982"/>
  <node id="792277947" lat="12.7901928" lon="80.0171668"/>
  <node id="792277948" lat="12.7913960" lon="80.0178749"/>
  <node id="792277949" lat="12.7929889" lon="80.0188874"/>
  <node id="792277953" lat="12.7991591" lon="80.0229282"/>
  <node id="792277954" lat="12.8001949" lon="80.0236255"/>
  <node id="792277955" lat="12.8019525" lon="80.0247843"/>
  <node id="792277956" lat="12.8039612" lon="80.0260825"/>
  <node id="792277957" lat="12.8054469" lon="80.0270695"/>
  <node id="792277958" lat="12.8069429" lon="80.0280351"/>
  <node id="792277961" lat="12.8118181" lon="80.0311693"/>
  <node id="792277962" lat="12.8133676" lon="80.0321680"/>
  <node id="792277964" lat="12.8144700" lon="80.0328853"/>
  <node id="792399074" lat="12.8253434" lon="80.0403493"/>
  <node id="792399080" lat="12.8407144" lon="80.0561973"/>
  <node id="792469497" lat="12.8139748" lon="80.0323498"/>
  <node id="792469504" lat="12.8150233" lon="80.0330635"/>
  <node id="792477545" lat="12.8134610" lon="80.0320170"/>
  <node id="792489971" lat="12.7993810" lon="80.0228510"/>
  <node id="792489976" lat="12.8003948" lon="80.0235220"/>
  <node id="792492691" lat="12.7947306" lon="80.0200311"/>
  <node id="792492692" lat="12.7938656" lon="80.0194738"/>
  <node id="792493830" lat="12.7900982" lon="80.0171084"/>
  <node id="792496462" lat="12.7899593" lon="80.0168201"/>
  <node id="1123425350" lat="12.8268207" lon="80.0415308"/>
  <node id="1123425724" lat="12.8272014" lon="80.0419230"/>
  <node id="1145642169" lat="12.8317034" lon="80.0383907"/>
  <node id="1145642268" lat="12.8240750" lon="80.0375648"/>
  <node id="1145642388" lat="12.8278006" lon="80.0398407"/>
  <node id="1145642415" lat="12.8291079" lon="80.0377007"/>
  <node id="1145642441" lat="12.8290003" lon="80.0377059"/>
  <node id="1145642490" lat="12.8206256" lon="80.0358960"/>
  <node id="1145642569" lat="12.8276058" lon="80.0398302"/>
  <node id="1145642689" lat="12.8277134" lon="80.0398670"/>
  <node id="1145642751" lat="12.8289080" lon="80.0378584"/>
  <node id="1145799362" lat="12.8086737" lon="80.0289339"/>
  <node id="1145834074" lat="12.8308712" lon="80.0457987"/>
  <node id="1145834076" lat="12.8292189" lon="80.0418950"/>
  <node id="1145834094" lat="12.8119447" lon="80.0310458"/>
  <node id="1145834122" lat="12.8312682" lon="80.0437038"/>
  <node id="1145834125" lat="12.8280141" lon="80.0414267"/>
  <node id="1145834162" lat="12.8277207" lon="80.0399437"/>
  <node id="1145834183" lat="12.8312131" lon="80.0440997"/>
  <node id="1145834197" lat="12.8306468" lon="80.0426031"/>
  <node id="1145834201" lat="12.8303321" lon="80.0406741"/>
  <node id="1145834209" lat="12.8306911" lon="80.0459295"/>
  <node id="1145834297" lat="12.8281767" lon="80.0413033"/>
  <node id="1145834336" lat="12.8275828" lon="80.0411445"/>
  <node id="1145834368" lat="12.8276805" lon="80.0398557"/>
  <node id="1145834457" lat="12.8294174" lon="80.0404759"/>
  <node id="1145834912" lat="12.8303849" lon="80.0414942"/>
  <node id="1145834953" lat="12.8314107" lon="80.0432067"/>
  <node id="1145835061" lat="12.8301904" lon="80.0423780"/>
  <node id="1145835164" lat="12.8291120" lon="80.0404004"/>
  <node id="1145835426" lat="12.8310795" lon="80.0454374"/>
  <node id="1145835553" lat="12.8314049" lon="80.0430135"/>
  <node id="1145835953" lat="12.8306318" lon="80.0459913"/>
  <node id="1145836048" lat="12.8299890" lon="80.0423463"/>
  <node id="1145836109" lat="12.8281127" lon="80.0401173"/>
  <node id="1145836206" lat="12.8309736" lon="80.0457488"/>
  <node id="1145836219" lat="12.8278200" lon="80.0400399"/>
  <node id="1145836342" lat="12.8312498" lon="80.0443144"/>
  <node id="1145836435" lat="12.8313221" lon="80.0429502"/>
  <node id="1180944810" lat="12.8022221" lon="80.0247225"/>
  <node id="1180944865" lat="12.7989140" lon="80.0227695"/>
  <node id="1180944894" lat="12.8021008" lon="80.0248790">
    <tag k="highway" v="crossing"/>
  </node>
  <node id="1180944895" lat="12.8100980" lon="80.0300579"/>
  <node id="1180944941" lat="12.7989985" lon="80.0226061"/>
  <node id="1992030278" lat="12.8251648" lon="80.0429214"/>
  <node id="1992030282" lat="12.8230600" lon="80.0448063"/>
  <node id="1992030288" lat="12.8226936" lon="80.0448070"/>
  <node id="1992030289" lat="12.8254578" lon="80.0417788"/>
  <node id="1992030291" lat="12.8243503" lon="80.0411746"/>
  <node id="1992030293" lat="12.8229575" lon="80.0472853"/>
  <node id="1992030295" lat="12.8228896" lon="80.0449316"/>
  <node id="1992030296" lat="12.8228996" lon="80.0447092"/>
  <node id="1992030298" lat="12.8224112" lon="80.0387054"/>
  <node id="1992030300" lat="12.8211897" lon="80.0448202"/>
  <node id="1992030302" lat="12.8261293" lon="80.0413549"/>
  <node id="1992030304" lat="12.8244546" lon="80.0428972"/>
  <node id="1992030305" lat="12.8230910" lon="80.0427875"/>
  <node id="1992030307" lat="12.8244513" lon="80.0448850"/>
  <node id="1992030313" lat="12.8215142" lon="80.0394596"/>
  <node id="1992030316" lat="12.8229091" lon="80.0426589"/>
  <node id="1992030318" lat="12.8243649" lon="80.0429089"/>
  <node id="1992030320" lat="12.8230288" lon="80.0447393"/>
  <node id="1992030323" lat="12.8230432" lon="80.0426699"/>
  <node id="1992030325" lat="12.8228777" lon="80.0426835"/>
  <node id="1992030326" lat="12.8230206" lon="80.0449142"/>
  <node id="1992030330" lat="12.8231223" lon="80.0410573"/>
  <node id="1992030339" lat="12.8230063" lon="80.0410526"/>
  <node id="1992030340" lat="12.8228239" lon="80.0448172"/>
  <node id="1992030342" lat="12.8230622" lon="80.0472870"/>
  <node id="1992030344" lat="12.8206352" lon="80.0373054"/>
  <node id="1992030346" lat="12.8229178" lon="80.0428877"/>
  <node id="1992030349" lat="12.8253793" lon="80.0419022"/>
  <node id="1992030351" lat="12.8255833" lon="80.0418217"/>
  <node id="1992030354" lat="12.8230172" lon="80.0428880"/>
  <node id="1992047762" lat="12.8210249" lon="80.0385831"/>
  <node id="1992047764" lat="12.8213359" lon="80.0387071"/>
  <node id="1992047770" lat="12.8219543" lon="80.0385009"/>
  <node id="1992047775" lat="12.8201885" lon="80.0369867"/>
  <node id="1992047777" lat="12.8217898" lon="80.0388902"/>
  <node id="1992047790" lat="12.8209394" lon="80.0385498"/>
  <node id="1992076494" lat="12.8244558" lon="80.0451824"/>
  <node id="1992076502" lat="12.8229242" lon="80.0438924"/>
  <node id="1992076538" lat="12.8208307" lon="80.0439170"/>
  <node id="1992076540" lat="12.8208464" lon="80.0432820"/>
  <node id="1992076555" lat="12.8251701" lon="80.0447078"/>
  <node id="1992076561" lat="12.8213263" lon="80.0378063"/>
  <node id="1992076586" lat="12.8229127" lon="80.0432485"/>
  <node id="1992076588" lat="12.8251910" lon="80.0455232"/>
  <node id="1992076606" lat="12.8226488" lon="80.0410498"/>
  <node id="1992076616" lat="12.8251701" lon="80.0436724"/>
  <node id="1992076639" lat="12.8244174" lon="80.0461111"/>
  <node id="2181233087" lat="12.7904987" lon="80.0173468"/>
  <node id="2795954439" lat="12.7954113" lon="80.0204826"/>
  <node id="2795954449" lat="12.7956792" lon="80.0206652"/>
  <node id="2795954457" lat="12.7957791" lon="80.0205043"/>
  <node id="3054522468" lat="12.8262212" lon="80.0413068"/>
  <node id="3054522469" lat="12.8263674" lon="80.0414168"/>
  <node id="3226679695" lat="12.8228418" lon="80.0448870"/>
  <node id="3226679696" lat="12.8228346" lon="80.0447719"/>
  <node id="3226679697" lat="12.8228627" lon="80.0449127"/>
  <node id="3226679698" lat="12.8228611" lon="80.0447341"/>
  <node id="3226679699" lat="12.8229344" lon="80.0449440"/>
  <node id="3226679700" lat="12.8229455" lon="80.0447010"/>
  <node id="3226679701" lat="12.8229804" lon="80.0449379"/>
  <node id="3226679702" lat="12.8229909" lon="80.0447116"/>
  <node id="3226679703" lat="12.8230452" lon="80.0448834"/>
  <node id="3226679704" lat="12.8230495" lon="80.0447703"/>
  <node id="3226679705" lat="12.8230588" lon="80.0448461"/>
  <node id="3314833416" lat="12.8194404" lon="80.0364231"/>
  <node id="3314833422" lat="12.8210027" lon="80.0405250"/>
  <node id="3347679393" lat="12.8237029" lon="80.0428639"/>
  <node id="3680690002" lat="12.8311799" lon="80.0439021">
    <tag k="railway" v="level_crossing"/>
  </node>
  <node id="3680690003" lat="12.8311851" lon="80.0440027"/>
  <node id="5012739119" lat="12.8223622" lon="80.0367308"/>
  <node id="5458288244" lat="12.8261829" lon="80.0412777"/>
  <node id="5458288245" lat="12.8306154" lon="80.0459754"/>
  <node id="5793778734" lat="12.8331251" lon="80.0482131"/>
  <node id="5793778742" lat="12.8328090" lon="80.0478677"/>
  <node id="5831452919" lat="12.8229051" lon="80.0443135"/>
  <node id="5987972405" lat="12.8230910" lon="80.0427543"/>
  <node id="5987972406" lat="12.8230825" lon="80.0427222"/>
  <node id="5987972407" lat="12.8230662" lon="80.0426934"/>
  <node id="5987972408" lat="12.8230123" lon="80.0426522"/>
  <node id="5987972409" lat="12.8229777" lon="80.0426442"/>
  <node id="5987972410" lat="12.8229424" lon="80.0426465"/>
  <node id="5987972411" lat="12.8228555" lon="80.0427169"/>
  <node id="5987972412" lat="12.8228445" lon="80.0427559"/>
  <node id="5987972413" lat="12.8228461" lon="80.0427963"/>
  <node id="5987972414" lat="12.8228599" lon="80.0428342"/>
  <node id="5987972415" lat="12.8228847" lon="80.0428658"/>
  <node id="5987972416" lat="12.8229505" lon="80.0428973"/>
  <node id="5987972417" lat="12.8229845" lon="80.0428974"/>
  <node id="5987972418" lat="12.8230528" lon="80.0428641"/>
  <node id="5987972419" lat="12.8230784" lon="80.0428292"/>
  <node id="6304907867" lat="12.8085641" lon="80.0290765"/>
  <node id="6304907869" lat="12.8090063" lon="80.0293473"/>
  <node id="6304977339" lat="12.8212803" lon="80.0375737"/>
  <node id="6307282587" lat="12.7958440" lon="80.0205410"/>
  <node id="6307282588" lat="12.7957304" lon="80.0207013"/>
  <node id="6333673686" lat="12.8353636" lon="80.0438156"/>
  <node id="6333673687" lat="12.8351874" lon="80.0437018"/>
  <node id="6333673688" lat="12.8348422" lon="80.0435328"/>
  <node id="6333673689" lat="12.8347285" lon="80.0434712"/>
  <node id="6333673690" lat="12.8346696" lon="80.0434121"/>
  <node id="6333673691" lat="12.8346081" lon="80.0433183"/>
  <node id="6333673692" lat="12.8344460" lon="80.0432251"/>
  <node id="6333673693" lat="12.8343028" lon="80.0432538"/>
  <node id="6333673694" lat="12.8340838" lon="80.0432163"/>
  <node id="6333673695" lat="12.8338720" lon="80.0431493"/>
  <node id="6333673696" lat="12.8337151" lon="80.0430796"/>
  <node id="6333673697" lat="12.8332208" lon="80.0427952"/>
  <node id="6333673698" lat="12.8324336" lon="80.0424144"/>
  <node id="6333673699" lat="12.8311548" lon="80.0419342"/>
  <node id="6333673700" lat="12.8303571" lon="80.0416392"/>
  <node id="6333673701" lat="12.8286925" lon="80.0415708"/>
  <node id="6333673702" lat="12.8295935" lon="80.0421032"/>
  <node id="6333673703" lat="12.8289658" lon="80.0406039"/>
  <node id="6333673704" lat="12.8302499" lon="80.0421756"/>
  <node id="6333673759" lat="12.8278869" lon="80.0450052"/>
  <node id="6333673760" lat="12.8281355" lon="80.0450054"/>
  <node id="6333673761" lat="12.8285696" lon="80.0453889"/>
  <node id="6333673762" lat="12.8288136" lon="80.0451226"/>
  <node id="6333673763" lat="12.8284480" lon="80.0447479"/>
  <node id="6333673764" lat="12.8291101" lon="80.0454309"/>
  <node id="6333673765" lat="12.8263662" lon="80.0453098"/>
  <node id="6333673766" lat="12.8275013" lon="80.0453205"/>
  <node id="6333673767" lat="12.8275405" lon="80.0444581"/>
  <node id="6333673768" lat="12.8271796" lon="80.0444515"/>
  <node id="6333673769" lat="12.8279171" lon="80.0444649"/>
  <node id="6333673770" lat="12.8268461" lon="80.0466362"/>
  <node id="6333673771" lat="12.8268801" lon="80.0462593"/>
  <node id="6333673772" lat="12.8265650" lon="80.0461802"/>
  <node id="6333673773" lat="12.8265388" lon="80.0461346"/>
  <node id="6333673774" lat="12.8265336" lon="80.0460783"/>
  <node id="6333673775" lat="12.8266042" lon="80.0453179"/>
  <node id="6333673776" lat="12.8266212" lon="80.0446594"/>
  <node id="6333673777" lat="12.8260772" lon="80.0446567"/>
  <node id="6333673778" lat="12.8260759" lon="80.0439540"/>
  <node id="6333673779" lat="12.8273038" lon="80.0439768"/>
  <node id="6333673780" lat="12.8279549" lon="80.0432111"/>
  <node id="6333673781" lat="12.8277432" lon="80.0434618"/>
  <node id="6333673782" lat="12.8293959" lon="80.0451156"/>
  <node id="6333673783" lat="12.8278674" lon="80.0453527"/>
  <node id="6333673784" lat="12.8278491" lon="80.0460246"/>
  <node id="6333674485" lat="12.8284493" lon="80.0461601"/>
  <node id="6333674486" lat="12.8295727" lon="80.0449206"/>
  <node id="6537017520" lat="12.8214992" lon="80.0476527"/>
  <node id="6537017523" lat="12.8214963" lon="80.0480579"/>
  <node id="6537017526" lat="12.8214495" lon="80.0473979"/>
  <node id="6537017527" lat="12.8214992" lon="80.0474864"/>
  <node id="6537017529" lat="12.8214102" lon="80.0457510"/>
  <node id="6537017533" lat="12.8214293" lon="80.0450535"/>
  <node id="6537017534" lat="12.8211893" lon="80.0450483"/>
  <node id="6537017535" lat="12.8213786" lon="80.0472489"/>
  <node id="6537017536" lat="12.8214338" lon="80.0449034"/>
  <node id="6537017541" lat="12.8224119" lon="80.0426383"/>
  <node id="6537017542" lat="12.8220327" lon="80.0425968"/>
  <node id="6537017543" lat="12.8219647" lon="80.0426665"/>
  <node id="6537017544" lat="12.8219699" lon="80.0427443"/>
  <node id="6537017618" lat="12.8197855" lon="80.0364373"/>
  <node id="6537017619" lat="12.8192238" lon="80.0360508"/>
  <node id="6538811603" lat="12.8228277" lon="80.0448535"/>
  <node id="6538835811" lat="12.8230306" lon="80.0454881"/>
  <node id="6538835812" lat="12.8233090" lon="80.0454801"/>
  <node id="6538835813" lat="12.8238320" lon="80.0454748"/>
  <node id="6538835814" lat="12.8244352" lon="80.0454669"/>
  <node id="6771100248" lat="12.8246741" lon="80.0431547"/>
  <node id="6771100249" lat="12.8251665" lon="80.0431640"/>
  <node id="6771100250" lat="12.8266160" lon="80.0431775"/>
  <node id="6771100251" lat="12.8266500" lon="80.0431909"/>
  <node id="6771100252" lat="12.8266748" lon="80.0432217"/>
  <node id="6771100253" lat="12.8267115" lon="80.0432995"/>
  <node id="6771100254" lat="12.8267272" lon="80.0436605"/>
  <node id="6771100255" lat="12.8261779" lon="80.0436562"/>
  <node id="6771100256" lat="12.8268631" lon="80.0436616"/>
  <node id="6771100257" lat="12.8272031" lon="80.0439749"/>
  <node id="6800268665" lat="12.8026983" lon="80.0252662"/>
  <node id="6800268667" lat="12.8030470" lon="80.0254875"/>
  <node id="6802783151" lat="12.8408253" lon="80.0562959"/>
  <node id="6805472874" lat="12.8042027" lon="80.0262501"/>
  <node id="6817206389" lat="12.8310815" lon="80.0431493"/>
  <node id="6817206392" lat="12.8314273" lon="80.0430929"/>
  <node id="6880459117" lat="12.8213414" lon="80.0379211"/>
  <node id="6956550227" lat="12.8215985" lon="80.0412664"/>
  <node id="6956550228" lat="12.8212455" lon="80.0413334"/>
  <node id="6956550229" lat="12.8210310" lon="80.0410438"/>
  <node id="6956550230" lat="12.8211827" lon="80.0407004"/>
  <node id="6956550231" lat="12.8209941" lon="80.0413192"/>
  <node id="6988605626" lat="12.8193117" lon="80.0363368"/>
  <node id="7003937394" lat="12.8245734" lon="80.0447217"/>
  <node id="7003937395" lat="12.8248938" lon="80.0447142"/>
  <node id="7053543065" lat="12.8251701" lon="80.0442865"/>
  <node id="7053543066" lat="12.8244532" lon="80.0442973"/>
  <node id="7053543067" lat="12.8238137" lon="80.0443080"/>
  <node id="7053543068" lat="12.8237719" lon="80.0443643"/>
  <node id="7053543069" lat="12.8236254" lon="80.0443697"/>
  <node id="7053543070" lat="12.8236284" lon="80.0447729"/>
  <node id="7062230433" lat="12.8284623" lon="80.0414297"/>
  <node id="7062230434" lat="12.8289030" lon="80.0406817"/>
  <node id="7101298480" lat="12.8211310" lon="80.0376587"/>
  <node id="7101298481" lat="12.8211981" lon="80.0377071"/>
  <node id="7151629409" lat="12.8384323" lon="80.0538170"/>
  <node id="7169973360" lat="12.8290364" lon="80.0472410"/>
  <node id="7169973361" lat="12.8290129" lon="80.0472115"/>
  <node id="7169973362" lat="12.8290338" lon="80.0461641"/>
  <node id="7169973363" lat="12.8290129" lon="80.0460957"/>
  <node id="7169973364" lat="12.8292400" lon="80.0458237"/>
  <node id="7169973365" lat="12.8289803" lon="80.0455741"/>
  <node id="7169973366" lat="12.8293333" lon="80.0459133"/>
  <node id="7169973367" lat="12.8293856" lon="80.0459227"/>
  <node id="7169973368" lat="12.8298027" lon="80.0459307"/>
  <node id="7169973369" lat="12.8298249" lon="80.0459160"/>
  <node id="7169973370" lat="12.8298065" lon="80.0451677"/>
  <node id="7169973371" lat="12.8298406" lon="80.0457859"/>
  <node id="7169973372" lat="12.8302264" lon="80.0457778"/>
  <node id="7169973374" lat="12.8297497" lon="80.0476511"/>
  <node id="7169973375" lat="12.8298143" lon="80.0472976"/>
  <node id="7169973376" lat="12.8298885" lon="80.0472918"/>
  <node id="7169973377" lat="12.8299779" lon="80.0464980"/>
  <node id="7169973378" lat="12.8302486" lon="80.0465342"/>
  <node id="7169973379" lat="12.8302318" lon="80.0455872"/>
  <node id="7783554891" lat="12.8271966" lon="80.0386459"/>
  <node id="7783554892" lat="12.8272554" lon="80.0385413"/>
  <node id="7783554893" lat="12.8272737" lon="80.0384715"/>
  <node id="7783554894" lat="12.8272672" lon="80.0384045"/>
  <node id="7783554895" lat="12.8264546" lon="80.0390915"/>
  <node id="7783554896" lat="12.8270102" lon="80.0382171"/>
  <node id="7783554897" lat="12.8260983" lon="80.0388629"/>
  <node id="7783554898" lat="12.8266549" lon="80.0379698"/>
  <node id="7783554899" lat="12.8265362" lon="80.0373343"/>
  <node id="7783554900" lat="12.8267927" lon="80.0393085"/>
  <node id="7783554901" lat="12.8272227" lon="80.0383495"/>
  <node id="7783554902" lat="12.8262930" lon="80.0377178"/>
  <node id="7783554903" lat="12.8257079" lon="80.0386125"/>
  <node id="7791291480" lat="12.7878736" lon="80.0158099"/>
  <node id="7799747066" lat="12.8294108" lon="80.0442723"/>
  <node id="7799813178" lat="12.8365225" lon="80.0517954"/>
  <node id="7799821492" lat="12.8352264" lon="80.0504887"/>
  <node id="7799821496" lat="12.8355756" lon="80.0508512"/>
  <node id="7799821504" lat="12.8344841" lon="80.0496919"/>
  <node id="7799866998" lat="12.8327383" lon="80.0421448"/>
  <node id="7799867001" lat="12.8344715" lon="80.0432217"/>
  <node id="7799867002" lat="12.8345121" lon="80.0432365"/>
  <node id="7799867003" lat="12.8343708" lon="80.0432459"/>
  <node id="7799867008" lat="12.8319190" lon="80.0417830"/>
  <node id="7799867010" lat="12.8321595" lon="80.0418621"/>
  <node id="7799867018" lat="12.8304473" lon="80.0412516"/>
  <node id="7799867025" lat="12.8333011" lon="80.0424402"/>
  <node id="7799897263" lat="12.8301213" lon="80.0436904"/>
  <node id="7799897264" lat="12.8301041" lon="80.0436696"/>
  <node id="7799897265" lat="12.8300511" lon="80.0436562"/>
  <node id="7799898985" lat="12.8277431" lon="80.0412514"/>
  <node id="7799898986" lat="12.8283411" lon="80.0401868"/>
  <node id="7799898987" lat="12.8280367" lon="80.0414327"/>
  <node id="7799898988" lat="12.8280616" lon="80.0414266"/>
  <node id="7799898989" lat="12.8282048" lon="80.0412872"/>
  <node id="7799898990" lat="12.8282283" lon="80.0412852"/>
  <node id="7799898991" lat="12.8301317" lon="80.0437398"/>
  <node id="7799898993" lat="12.8282918" lon="80.0413215"/>
  <node id="7799898997" lat="12.8297235" lon="80.0415148"/>
  <node id="7799898999" lat="12.8278824" lon="80.0404875"/>
  <node id="7799899000" lat="12.8300991" lon="80.0450020"/>
  <node id="7799899003" lat="12.8301201" lon="80.0445821"/>
  <node id="7799899004" lat="12.8290305" lon="80.0411875"/>
  <node id="7799899006" lat="12.8280028" lon="80.0402969"/>
  <node id="7799899010" lat="12.8287660" lon="80.0416161"/>
  <node id="7799899012" lat="12.8292787" lon="80.0408002"/>
  <node id="7799899013" lat="12.8300229" lon="80.0416361"/>
  <node id="7799899017" lat="12.8296623" lon="80.0436186"/>
  <node id="7799899019" lat="12.8284107" lon="80.0410776"/>
  <node id="7799899020" lat="12.8303327" lon="80.0417615"/>
  <node id="7799899021" lat="12.8288437" lon="80.0403244"/>
  <node id="7800128775" lat="12.8286070" lon="80.0443262"/>
  <node id="7800128777" lat="12.8279003" lon="80.0447658"/>
  <node id="7800128780" lat="12.8279321" lon="80.0443151"/>
  <node id="7800128781" lat="12.8271371" lon="80.0458280"/>
  <node id="7800128782" lat="12.8283392" lon="80.0440582"/>
  <node id="7800128783" lat="12.8271528" lon="80.0446370"/>
  <node id="7800136586" lat="12.8284133" lon="80.0445458"/>
  <node id="7800136587" lat="12.8290180" lon="80.0469546"/>
  <node id="7800136590" lat="12.8285586" lon="80.0438491"/>
  <node id="7800136597" lat="12.8288139" lon="80.0441187"/>
  <node id="7800136601" lat="12.8271528" lon="80.0453195"/>
  <node id="7800136602" lat="12.8282276" lon="80.0447470"/>
  <node id="7800383288" lat="12.8305127" lon="80.0407608"/>
  <node id="7800383312" lat="12.8304741" lon="80.0429230"/>
  <node id="7800429644" lat="12.8296850" lon="80.0407313"/>
  <node id="7800429645" lat="12.8301623" lon="80.0408614"/>
  <node id="7800429646" lat="12.8305148" lon="80.0410024"/>
  <node id="7800429659" lat="12.8244804" lon="80.0429002"/>
  <node id="7801266722" lat="12.8073646" lon="80.0280859"/>
  <node id="7801266732" lat="12.8105721" lon="80.0301563"/>
  <node id="7801363668" lat="12.8105285" lon="80.0303471"/>
  <node id="7801363706" lat="12.8114747" lon="80.0309502"/>
  <node id="7802971870" lat="12.8184235" lon="80.0356976"/>
  <node id="7802971883" lat="12.8137506" lon="80.0324235"/>
  <node id="7802971885" lat="12.8149723" lon="80.0332416"/>
  <node id="7803013750" lat="12.8056092" lon="80.0269314"/>
  <node id="7805675297" lat="12.8275753" lon="80.0411308"/>
  <node id="7805675298" lat="12.8275683" lon="80.0411135"/>
  <node id="7805675299" lat="12.8275684" lon="80.0410964"/>
  <node id="7805675300" lat="12.8275702" lon="80.0410736"/>
  <node id="7845204085" lat="12.7864448" lon="80.0147680"/>
  <node id="7845204088" lat="12.7865417" lon="80.0148168"/>
  <node id="7845204090" lat="12.7861016" lon="80.0145681"/>
  <node id="7845204097" lat="12.7866305" lon="80.0150950"/>
  <node id="7845256185" lat="12.8189060" lon="80.0358188"/>
  <node id="7845256186" lat="12.8190256" lon="80.0361280"/>
  <node id="9619977431" lat="12.8257182" lon="80.0439251"/>
  <node id="9864953578" lat="12.8309486" lon="80.0458822"/>
  <node id="9864953580" lat="12.8308334" lon="80.0457653"/>
  <node id="9971685227" lat="12.8388090" lon="80.0542048"/>
  <node id="9971685228" lat="12.8390450" lon="80.0544562"/>
  <node id="9971685229" lat="12.8395098" lon="80.0549493"/>
  <node id="10026196438" lat="12.8281245" lon="80.0442291"/>
  <node id="10044008925" lat="12.8308560" lon="80.0409988"/>
  <node id="10044008926" lat="12.8312279" lon="80.0411955"/>
  <node id="10044008927" lat="12.8315708" lon="80.0411776"/>
  <node id="10044008928" lat="12.8319776" lon="80.0411657"/>
  <node id="10044008929" lat="12.8324251" lon="80.0412432"/>
  <node id="10044008930" lat="12.8327796" lon="80.0411478"/>
  <node id="10044008931" lat="12.8330644" lon="80.0410703"/>
  <node id="10044008932" lat="12.8338722" lon="80.0408498"/>
  <node id="10044008933" lat="12.8341802" lon="80.0407962"/>
  <node id="10044008934" lat="12.8343139" lon="80.0402537"/>
  <node id="10044008935" lat="12.8344999" lon="80.0399140"/>
  <node id="10044008936" lat="12.8346690" lon="80.0396178"/>
  <node id="10129511460" lat="12.8282568" lon="80.0402941"/>
  <node id="10129511461" lat="12.8280604" lon="80.0402007"/>
  <node id="10129511462" lat="12.8287507" lon="80.0404466"/>
  <node id="10542588127" lat="12.8311995" lon="80.0438548">
    <tag k="railway" v="level_crossing"/>
  </node>
  <node id="10542588128" lat="12.8312216" lon="80.0438064">
    <tag k="railway" v="level_crossing"/>
  </node>
  <node id="10578525477" lat="12.8301151" lon="80.0440428"/>
  <node id="10578525478" lat="12.8297491" lon="80.0439449"/>
  <node id="10578525479" lat="12.8300060" lon="80.0439874"/>
  <node id="10578525480" lat="12.8300023" lon="80.0440549"/>
  <node id="10578525481" lat="12.8299189" lon="80.0440793"/>
  <node id="10578525482" lat="12.8297699" lon="80.0440915"/>
  <node id="10578525483" lat="12.8301120" lon="80.0443908"/>
  <node id="10578525484" lat="12.8301627" lon="80.0443965"/>
  <node id="10578525485" lat="12.8301627" lon="80.0444801"/>
  <node id="10578525486" lat="12.8301936" lon="80.0445320"/>
  <node id="10578525487" lat="12.8305730" lon="80.0445954"/>
  <node id="10578525488" lat="12.8301711" lon="80.0442841"/>
  <node id="11045715043" lat="12.8285156" lon="80.0438822"/>
  <node id="11242833747" lat="12.8300922" lon="80.0448331"/>
  <node id="11242833748" lat="12.8270061" lon="80.0415652"/>
  <node id="11242833749" lat="12.8301188" lon="80.0447207"/>
  <node id="11242833750" lat="12.8269007" lon="80.0414551"/>
  <node id="11242833753" lat="12.8300180" lon="80.0449160"/>
  <node id="11242833754" lat="12.8282416" lon="80.0428735"/>
  <node id="11242833755" lat="12.8281737" lon="80.0429416"/>
  <node id="11243148513" lat="12.8324320" lon="80.0474870"/>
  <node id="11399819989" lat="12.8399305" lon="80.0553962"/>
  <node id="11409273230" lat="12.8301338" lon="80.0443933">
    <tag k="access" v="private"/>
    <tag k="barrier" v="gate"/>
  </node>
  <node id="11409312000" lat="12.8300876" lon="80.0440288">
    <tag k="access" v="private"/>
    <tag k="barrier" v="gate"/>
  </node>
  <node id="11664765720" lat="12.8126480" lon="80.0317131"/>
  <node id="11675771998" lat="12.8300196" lon="80.0420669"/>
  <node id="11675771999" lat="12.8297415" lon="80.0419211"/>
  <node id="11675772000" lat="12.8296121" lon="80.0418411"/>
  <node id="11675772001" lat="12.8295002" lon="80.0417511"/>
  <node id="11675772002" lat="12.8293910" lon="80.0416745"/>
  <node id="11675772003" lat="12.8293169" lon="80.0415812"/>
  <node id="11675772004" lat="12.8292695" lon="80.0415234"/>
  <node id="11675772005" lat="12.8292133" lon="80.0414658"/>
  <node id="11675772006" lat="12.8290766" lon="80.0413871"/>
  <node id="11675772007" lat="12.8289517" lon="80.0413152"/>
  <node id="11675772008" lat="12.8304233" lon="80.0422511"/>
  <node id="11675772009" lat="12.8306178" lon="80.0423177"/>
  <node id="11675772010" lat="12.8307578" lon="80.0423654"/>
  <node id="11675772011" lat="12.8308437" lon="80.0424167"/>
  <node id="11675772012" lat="12.8310750" lon="80.0425660"/>
  <node id="11843106791" lat="12.8336452" lon="80.0430394"/>
  <node id="11843145181" lat="12.8311182" lon="80.0451824"/>
  <node id="12054466085" lat="12.8284290" lon="80.0447442"/>
  <node id="12054466086" lat="12.8284656" lon="80.0447608"/>
  <node id="12281458988" lat="12.8050580" lon="80.0265780"/>
  <node id="12401001988" lat="12.8247805" lon="80.0411459"/>
  <node id="12401001989" lat="12.8237360" lon="80.0411380"/>
  <node id="12479908068" lat="12.8136491" lon="80.0323522"/>
  <node id="12479908074" lat="12.7996403" lon="80.0232521"/>
  <node id="12479929041" lat="12.7829640" lon="80.0129570"/>
  <node id="12479929047" lat="12.7782622" lon="80.0108489"/>
  <node id="12479933928" lat="12.7944870" lon="80.0198739"/>
  <node id="12479933930" lat="12.7940615" lon="80.0195896"/>
  <node id="12479933933" lat="12.7899922" lon="80.0170430"/>
  <node id="12480019931" lat="12.7833353" lon="80.0131256"/>
  <node id="12480019943" lat="12.7901619" lon="80.0169087"/>
  <node id="12480019945" lat="12.7906914" lon="80.0172303"/>
  <node id="12480019948" lat="12.7996747" lon="80.0230561"/>
  <node id="12637902934" lat="12.8322009" lon="80.0472411"/>
  <node id="12955686971" lat="12.8188828" lon="80.0358023">
    <tag k="highway" v="traffic_signals"/>
  </node>
  <node id="12955686972" lat="12.8191793" lon="80.0362412">
    <tag k="highway" v="traffic_signals"/>
  </node>
  <node id="12955686977" lat="12.8093140" lon="80.0295505"/>
  <node id="12955686978" lat="12.8094252" lon="80.0294137"/>
  <node id="12955686979" lat="12.8049710" lon="80.0267529"/>
  <node id="12955686980" lat="12.8042701" lon="80.0260676"/>
  <node id="12955686981" lat="12.8010948" lon="80.0242062"/>
  <node id="12955686982" lat="12.7957016" lon="80.0204528">
    <tag k="highway" v="traffic_signals"/>
  </node>
  <node id="12955686985" lat="12.7930820" lon="80.0187197"/>
  <node id="12955686986" lat="12.7922947" lon="80.0184314"/>
  <node id="12965695124" lat="12.8266745" lon="80.0436601"/>
  <node id="12965695130" lat="12.8225325" lon="80.0410526"/>
  <node id="13243378551" lat="12.8208355" lon="80.0436059"/>
  <node id="13277051546" lat="12.8244395" lon="80.0455099"/>
  <node id="13293884898" lat="12.8323884" lon="80.0474406"/>
  <node id="13293910891" lat="12.8369660" lon="80.0522649"/>
  <node id="13293924219" lat="12.8267596" lon="80.0413090"/>
  <node id="13293924220" lat="12.8265698" lon="80.0411291"/>
  <node id="13293924221" lat="12.8264071" lon="80.0409875"/>
  <node id="13293924222" lat="12.8262570" lon="80.0408674"/>
  <node id="13293924223" lat="12.8260285" lon="80.0407019"/>
  <node id="13293924224" lat="12.8256192" lon="80.0404216"/>
  <node id="13293924225" lat="12.8253418" lon="80.0402093"/>
  <node id="13293924226" lat="12.8255176" lon="80.0403439"/>
  <node id="13293924227" lat="12.8254590" lon="80.0404327"/>
  <node id="13293924228" lat="12.8248162" lon="80.0398314"/>
  <node id="13293924229" lat="12.8244186" lon="80.0395455"/>
  <node id="13293924230" lat="12.8239379" lon="80.0392119"/>
  <node id="13293924231" lat="12.8234116" lon="80.0388412"/>
  <node id="13293924232" lat="12.8228264" lon="80.0384353"/>
  <node id="13293924233" lat="12.8227898" lon="80.0384250"/>
  <node id="13293924234" lat="12.8227609" lon="80.0384263"/>
  <node id="13293924235" lat="12.8226261" lon="80.0384659"/>
  <node id="13293924236" lat="12.8226454" lon="80.0384787"/>
  <node id="13301680066" lat="12.8238991" lon="80.0428772"/>
  <node id="13301680067" lat="12.8239398" lon="80.0421522"/>
  <node id="13327546894" lat="12.8156307" lon="80.0337102"/>
  <node id="13327546898" lat="12.8212213" lon="80.0377250"/>
  <node id="13327815744" lat="12.8284415" lon="80.0428355"/>
  <node id="13327815745" lat="12.8283262" lon="80.0429630"/>
  <node id="13327815746" lat="12.8283414" lon="80.0429462"/>
  <node id="13327815747" lat="12.8285317" lon="80.0431292"/>
  <node id="13327815748" lat="12.8285892" lon="80.0430688"/>
  <node id="13673826757" lat="12.8068922" lon="80.0280024"/>
  <way id="34995828">
    <nd ref="415885811"/>
    <nd ref="792253820"/>
    <tag k="highway" v="residential"/>
  </way>
  <way id="35460609">
    <nd ref="6880459117"/>
    <nd ref="415885806"/>
    <nd ref="1992030298"/>
    <nd ref="415885865"/>
    <nd ref="415885805"/>
    <nd ref="415885811"/>
    <nd ref="1992030302"/>
    <nd ref="415885804"/>
    <nd ref="415885802"/>
    <nd ref="6333673780"/>
    <nd ref="7800136590"/>
    <nd ref="7800136597"/>
    <nd ref="6333674486"/>
    <nd ref="7169973370"/>
    <nd ref="7169973379"/>
    <nd ref="415885801"/>
    <nd ref="5458288245"/>
    <nd ref="1145835953"/>
    <tag k="highway" v="tertiary"/>
    <tag k="name" v="NH service road"/>
    <tag k="surface" v="asphalt"/>
  </way>
  <way id="35460610">
    <nd ref="415885805"/>
    <nd ref="410457079"/>
    <tag k="highway" v="residential"/>
  </way>
  <way id="35460675">
    <nd ref="415886023"/>
    <nd ref="1992030307"/>
    <nd ref="1992076494"/>
    <nd ref="6538835814"/>
    <nd ref="13277051546"/>
    <nd ref="1992076639"/>
    <nd ref="415886043"/>
    <tag k="highway" v="residential"/>
  </way>
  <way id="47572742">
    <nd ref="12479929047"/>
    <nd ref="30037905"/>
    <nd ref="12479929041"/>
    <nd ref="12480019931"/>
    <nd ref="30037906"/>
    <nd ref="7845204090"/>
    <nd ref="792277673"/>
    <nd ref="7845204085"/>
    <nd ref="7845204088"/>
    <nd ref="792277672"/>
    <nd ref="792496462"/>
    <nd ref="12480019943"/>
    <nd ref="12480019945"/>
    <nd ref="30037907"/>
    <nd ref="792277671"/>
    <nd ref="12955686985"/>
    <nd ref="792277670"/>
    <nd ref="12955686982"/>
    <nd ref="2795954457"/>
    <nd ref="6307282587"/>
    <nd ref="1180944941"/>
    <nd ref="792489971"/>
    <nd ref="12480019948"/>
    <nd ref="792489976"/>
    <nd ref="30037908"/>
    <nd ref="792277669"/>
    <nd ref="1180944810"/>
    <nd ref="12955686980"/>
    <nd ref="12281458988"/>
    <nd ref="7803013750"/>
    <nd ref="7801266722"/>
    <nd ref="1145799362"/>
    <nd ref="12955686978"/>
    <nd ref="30037909"/>
    <nd ref="7801266732"/>
    <nd ref="1145834094"/>
    <nd ref="792253821"/>
    <nd ref="792477545"/>
    <nd ref="792469497"/>
    <nd ref="792469504"/>
    <nd ref="12955686971"/>
    <nd ref="7845256185"/>
    <nd ref="792253697"/>
    <nd ref="6537017619"/>
    <nd ref="410463349"/>
    <nd ref="6537017618"/>
    <nd ref="6304977339"/>
    <nd ref="13293924235"/>
    <nd ref="13293924236"/>
    <nd ref="792399074"/>
    <nd ref="13293924227"/>
    <nd ref="30037912"/>
    <tag k="bicycle" v="yes"/>
    <tag k="dual_carriageway" v="yes"/>
    <tag k="highway" v="trunk"/>
    <tag k="lanes" v="4"/>
    <tag k="name" v="Grand Southern Trunk Road"/>
    <tag k="name:ta" v="மாபெரும் தெற்கு வழித்தடம்"/>
    <tag k="name:ur" v="گرینڈ سدرن ٹرنک روڈ"/>
    <tag k="oneway" v="yes"/>
    <tag k="ref" v="NH32"/>
    <tag k="ref:old" v="NH45"/>
    <tag k="shoulder" v="yes"/>
    <tag k="surface" v="asphalt"/>
  </way>
  <way id="95222417">
    <nd ref="792253820"/>
    <nd ref="415884749"/>
    <nd ref="415885803"/>
    <nd ref="415884748"/>
    <nd ref="415885652"/>
    <nd ref="1992076561"/>
    <nd ref="13327546898"/>
    <nd ref="7101298481"/>
    <nd ref="7101298480"/>
    <nd ref="1992030344"/>
    <nd ref="1992047775"/>
    <nd ref="415884747"/>
    <nd ref="3314833416"/>
    <nd ref="6988605626"/>
    <nd ref="12955686972"/>
    <nd ref="415884745"/>
    <nd ref="7845256186"/>
    <nd ref="792253696"/>
    <nd ref="7802971870"/>
    <nd ref="13327546894"/>
    <nd ref="7802971885"/>
    <nd ref="792277964"/>
    <nd ref="7802971883"/>
    <nd ref="12479908068"/>
    <nd ref="792277962"/>
    <nd ref="11664765720"/>
    <nd ref="792277961"/>
    <nd ref="7801363706"/>
    <nd ref="7801363668"/>
    <nd ref="1180944895"/>
    <nd ref="792277732"/>
    <nd ref="12955686977"/>
    <nd ref="6304907869"/>
    <nd ref="6304907867"/>
    <nd ref="792277958"/>
    <nd ref="13673826757"/>
    <nd ref="792277957"/>
    <nd ref="12955686979"/>
    <nd ref="6805472874"/>
    <nd ref="792277956"/>
    <nd ref="6800268667"/>
    <nd ref="6800268665"/>
    <nd ref="1180944894"/>
    <nd ref="792277955"/>
    <nd ref="12955686981"/>
    <nd ref="792277954"/>
    <nd ref="12479908074"/>
    <nd ref="792277953"/>
    <nd ref="1180944865"/>
    <nd ref="349187035"/>
    <nd ref="6307282588"/>
    <nd ref="2795954449"/>
    <nd ref="2795954439"/>
    <nd ref="792492691"/>
    <nd ref="12479933928"/>
    <nd ref="12479933930"/>
    <nd ref="792492692"/>
    <nd ref="792277949"/>
    <nd ref="12955686986"/>
    <nd ref="792277948"/>
    <nd ref="2181233087"/>
    <nd ref="792277947"/>
    <nd ref="792493830"/>
    <nd ref="12479933933"/>
    <nd ref="792277946"/>
    <nd ref="7791291480"/>
    <nd ref="792277945"/>
    <nd ref="7845204097"/>
    <nd ref="792277716"/>
    <tag k="dual_carriageway" v="yes"/>
    <tag k="highway" v="trunk"/>
    <tag k="lanes" v="4"/>
    <tag k="name" v="Grand Southern Trunk Road"/>
    <tag k="name:ta" v="மாபெரும் தெற்கு வழித்தடம்"/>
    <tag k="name:ur" v="گرینڈ سدرن ٹرنک روڈ"/>
    <tag k="oneway" v="yes"/>
    <tag k="ref" v="NH32"/>
    <tag k="ref:old" v="NH45"/>
    <tag k="shoulder" v="yes"/>
    <tag k="surface" v="asphalt"/>
  </way>
  <way id="99029665">
    <nd ref="1145642169"/>
    <nd ref="1145642415"/>
    <nd ref="1145642441"/>
    <nd ref="1145642751"/>
    <nd ref="1145642388"/>
    <nd ref="1145642689"/>
    <nd ref="1145834368"/>
    <nd ref="1145642569"/>
    <nd ref="7783554900"/>
    <nd ref="7783554895"/>
    <nd ref="7783554897"/>
    <nd ref="7783554903"/>
    <nd ref="1145642268"/>
    <nd ref="5012739119"/>
    <nd ref="1145642490"/>
    <nd ref="792253700"/>
    <tag k="highway" v="residential"/>
  </way>
  <way id="99052512">
    <nd ref="1145835061"/>
    <nd ref="1145836048"/>
    <nd ref="6333673702"/>
    <nd ref="1145834076"/>
    <nd ref="7799899010"/>
    <nd ref="6333673701"/>
    <nd ref="7062230433"/>
    <nd ref="7799898993"/>
    <nd ref="7799898990"/>
    <nd ref="7799898989"/>
    <nd ref="1145834297"/>
    <nd ref="7799898988"/>
    <nd ref="7799898987"/>
    <nd ref="1145834125"/>
    <nd ref="7799898985"/>
    <nd ref="1145834336"/>
    <tag k="highway" v="residential"/>
  </way>
  <way id="99052541">
    <nd ref="10044008936"/>
    <nd ref="10044008935"/>
    <nd ref="10044008934"/>
    <nd ref="10044008933"/>
    <nd ref="10044008932"/>
    <nd ref="10044008931"/>
    <nd ref="10044008930"/>
    <nd ref="10044008929"/>
    <nd ref="10044008928"/>
    <nd ref="10044008927"/>
    <nd ref="10044008926"/>
    <nd ref="10044008925"/>
    <nd ref="7800383288"/>
    <nd ref="1145834201"/>
    <nd ref="1145834457"/>
    <nd ref="1145835164"/>
    <nd ref="7799899021"/>
    <nd ref="7799898986"/>
    <nd ref="1145836109"/>
    <nd ref="1145836219"/>
    <nd ref="1145834162"/>
    <nd ref="1145834368"/>
    <tag k="highway" v="unclassified"/>
  </way>
  <way id="99052555">
    <nd ref="9864953578"/>
    <nd ref="1145836206"/>
    <nd ref="1145835426"/>
    <nd ref="11843145181"/>
    <nd ref="1145836342"/>
    <nd ref="1145834183"/>
    <nd ref="3680690003"/>
    <nd ref="3680690002"/>
    <nd ref="10542588127"/>
    <nd ref="10542588128"/>
    <nd ref="1145834122"/>
    <nd ref="1145834953"/>
    <nd ref="6817206392"/>
    <nd ref="1145835553"/>
    <nd ref="1145836435"/>
    <nd ref="1145834197"/>
    <nd ref="1145835061"/>
    <tag k="highway" v="residential"/>
  </way>
  <way id="188574978">
    <nd ref="1992030340"/>
    <nd ref="3226679696"/>
    <nd ref="3226679698"/>
    <nd ref="1992030296"/>
    <nd ref="3226679700"/>
    <nd ref="3226679702"/>
    <nd ref="1992030320"/>
    <nd ref="3226679704"/>
    <nd ref="1992030282"/>
    <nd ref="3226679705"/>
    <nd ref="3226679703"/>
    <nd ref="1992030326"/>
    <nd ref="3226679701"/>
    <nd ref="3226679699"/>
    <nd ref="1992030295"/>
    <nd ref="3226679697"/>
    <nd ref="3226679695"/>
    <nd ref="6538811603"/>
    <nd ref="1992030340"/>
    <tag k="highway" v="residential"/>
    <tag k="junction" v="roundabout"/>
  </way>
  <way id="188574979">
    <nd ref="1992030293"/>
    <nd ref="1992030295"/>
    <tag k="highway" v="residential"/>
    <tag k="oneway" v="yes"/>
  </way>
  <way id="188574980">
    <nd ref="5987972418"/>
    <nd ref="1992030354"/>
    <nd ref="5987972417"/>
    <nd ref="5987972416"/>
    <nd ref="1992030346"/>
    <nd ref="5987972415"/>
    <nd ref="5987972414"/>
    <nd ref="5987972413"/>
    <nd ref="5987972412"/>
    <nd ref="5987972411"/>
    <nd ref="1992030325"/>
    <nd ref="1992030316"/>
    <nd ref="5987972410"/>
    <nd ref="5987972409"/>
    <nd ref="5987972408"/>
    <nd ref="1992030323"/>
    <nd ref="5987972407"/>
    <nd ref="5987972406"/>
    <nd ref="5987972405"/>
    <nd ref="1992030305"/>
    <nd ref="5987972419"/>
    <nd ref="5987972418"/>
    <tag k="highway" v="residential"/>
    <tag k="junction" v="roundabout"/>
  </way>
  <way id="188574981">
    <nd ref="1992030326"/>
    <nd ref="6538835811"/>
    <nd ref="1992030342"/>
    <tag k="highway" v="residential"/>
    <tag k="oneway" v="yes"/>
  </way>
  <way id="188574983">
    <nd ref="415886023"/>
    <nd ref="7053543066"/>
    <nd ref="1992030304"/>
    <tag k="bicycle" v="yes"/>
    <tag k="foot" v="yes"/>
    <tag k="highway" v="residential"/>
    <tag k="oneway" v="no"/>
    <tag k="surface" v="concrete"/>
  </way>
  <way id="188574984">
    <nd ref="1992030307"/>
    <nd ref="3226679703"/>
    <tag k="highway" v="residential"/>
    <tag k="oneway" v="yes"/>
  </way>
  <way id="188574985">
    <nd ref="1992030330"/>
    <nd ref="1992030323"/>
    <tag k="highway" v="residential"/>
    <tag k="oneway" v="yes"/>
  </way>
  <way id="188574986">
    <nd ref="1992030291"/>
    <nd ref="1992030318"/>
    <tag k="highway" v="residential"/>
  </way>
  <way id="188574988">
    <nd ref="3054522469"/>
    <nd ref="415885804"/>
    <nd ref="1992030351"/>
    <nd ref="1992030349"/>
    <nd ref="1992030278"/>
    <tag k="highway" v="residential"/>
  </way>
  <way id="188574989">
    <nd ref="1992030354"/>
    <nd ref="1992030320"/>
    <tag k="highway" v="residential"/>
    <tag k="oneway" v="yes"/>
  </way>
  <way id="188574991">
    <nd ref="415885806"/>
    <nd ref="1992047770"/>
    <nd ref="1992047777"/>
    <nd ref="1992030313"/>
    <nd ref="3314833422"/>
    <tag k="highway" v="residential"/>
  </way>
  <way id="188574992">
    <nd ref="1992030282"/>
    <nd ref="7053543070"/>
    <nd ref="415886023"/>
    <tag k="highway" v="residential"/>
    <tag k="oneway" v="yes"/>
  </way>
  <way id="188574993">
    <nd ref="1992030305"/>
    <nd ref="3347679393"/>
    <nd ref="13301680066"/>
    <nd ref="1992030318"/>
    <nd ref="1992030304"/>
    <nd ref="7800429659"/>
    <nd ref="1992030278"/>
    <tag k="highway" v="residential"/>
  </way>
  <way id="188574994">
    <nd ref="1992030296"/>
    <nd ref="5831452919"/>
    <nd ref="1992076502"/>
    <nd ref="1992076586"/>
    <nd ref="1992030346"/>
    <tag k="highway" v="residential"/>
    <tag k="oneway" v="yes"/>
  </way>
  <way id="188574995">
    <nd ref="3054522468"/>
    <nd ref="1992030302"/>
    <nd ref="1992030289"/>
    <nd ref="1992030349"/>
    <tag k="highway" v="residential"/>
  </way>
  <way id="188574996">
    <nd ref="415884748"/>
    <nd ref="1992030298"/>
    <nd ref="6956550230"/>
    <nd ref="6956550229"/>
    <nd ref="6956550231"/>
    <nd ref="6956550228"/>
    <nd ref="6956550227"/>
    <nd ref="12965695130"/>
    <nd ref="1992076606"/>
    <nd ref="1992030339"/>
    <nd ref="1992030330"/>
    <nd ref="12401001989"/>
    <nd ref="1992030291"/>
    <nd ref="12401001988"/>
    <nd ref="410457079"/>
    <nd ref="415885811"/>
    <tag k="highway" v="residential"/>
    <tag k="sidewalk" v="no"/>
  </way>
  <way id="188574997">
    <nd ref="1992030316"/>
    <nd ref="1992030339"/>
    <tag k="highway" v="residential"/>
    <tag k="oneway" v="yes"/>
  </way>
  <way id="188578611">
    <nd ref="1992047777"/>
    <nd ref="1992047764"/>
    <nd ref="1992047762"/>
    <nd ref="1992047790"/>
    <tag k="highway" v="residential"/>
  </way>
  <way id="188582607">
    <nd ref="415886023"/>
    <nd ref="7003937394"/>
    <nd ref="7003937395"/>
    <nd ref="1992076555"/>
    <nd ref="7053543065"/>
    <nd ref="1992076616"/>
    <nd ref="6771100249"/>
    <nd ref="1992030278"/>
    <tag k="highway" v="residential"/>
  </way>
  <way id="188582612">
    <nd ref="1992076586"/>
    <nd ref="1992076540"/>
    <nd ref="13243378551"/>
    <nd ref="1992076538"/>
    <nd ref="1992076502"/>
    <tag k="access" v="private"/>
    <tag k="highway" v="residential"/>
    <tag k="surface" v="paving_stones"/>
  </way>
  <way id="188582624">
    <nd ref="1992076588"/>
    <nd ref="1992076555"/>
    <tag k="highway" v="residential"/>
  </way>
  <way id="316544610">
    <nd ref="6537017534"/>
    <nd ref="1992030300"/>
    <nd ref="1992030288"/>
    <nd ref="1992030340"/>
    <tag k="highway" v="residential"/>
  </way>
  <way id="568057022">
    <nd ref="1145834209"/>
    <nd ref="415884750"/>
    <nd ref="415885886"/>
    <nd ref="3054522469"/>
    <nd ref="3054522468"/>
    <nd ref="5458288244"/>
    <nd ref="792253820"/>
    <tag k="dual_carriageway" v="yes"/>
    <tag k="highway" v="trunk"/>
    <tag k="lanes" v="4"/>
    <tag k="motorroad" v="no"/>
    <tag k="name" v="Grand Southern Trunk Road"/>
    <tag k="name:ur" v="گرینڈ سدرن ٹرنک روڈ"/>
    <tag k="oneway" v="yes"/>
    <tag k="ref" v="NH32"/>
    <tag k="ref:old" v="NH45"/>
    <tag k="surface" v="asphalt"/>
  </way>
  <way id="676318019">
    <nd ref="6333673700"/>
    <nd ref="6333673699"/>
    <nd ref="6333673698"/>
    <nd ref="6333673697"/>
    <nd ref="11843106791"/>
    <nd ref="6333673696"/>
    <nd ref="6333673695"/>
    <nd ref="6333673694"/>
    <nd ref="6333673693"/>
    <nd ref="7799867003"/>
    <nd ref="6333673692"/>
    <nd ref="7799867001"/>
    <nd ref="7799867002"/>
    <nd ref="6333673691"/>
    <nd ref="6333673690"/>
    <nd ref="6333673689"/>
    <nd ref="6333673688"/>
    <nd ref="6333673687"/>
    <nd ref="6333673686"/>
    <tag k="highway" v="residential"/>
  </way>
  <way id="676318020">
    <nd ref="1145834912"/>
    <nd ref="7799899012"/>
    <nd ref="6333673703"/>
    <nd ref="7062230434"/>
    <nd ref="7062230433"/>
    <tag k="highway" v="residential"/>
  </way>
  <way id="676318038">
    <nd ref="6333673762"/>
    <nd ref="6333673761"/>
    <nd ref="6333673760"/>
    <nd ref="6333673759"/>
    <tag k="highway" v="residential"/>
  </way>
  <way id="676318039">
    <nd ref="6333673764"/>
    <nd ref="6333673762"/>
    <nd ref="12054466086"/>
    <nd ref="6333673763"/>
    <tag k="highway" v="residential"/>
  </way>
  <way id="676318040">
    <nd ref="6333673783"/>
    <nd ref="6333673766"/>
    <nd ref="7800136601"/>
    <nd ref="6333673775"/>
    <nd ref="6333673765"/>
    <tag k="highway" v="residential"/>
  </way>
  <way id="676318041">
    <nd ref="6333673767"/>
    <nd ref="6333673766"/>
    <tag k="highway" v="residential"/>
  </way>
  <way id="676318042">
    <nd ref="6333673780"/>
    <nd ref="6333673781"/>
    <nd ref="6333673779"/>
    <nd ref="6771100257"/>
    <nd ref="6333673778"/>
    <nd ref="6333673777"/>
    <nd ref="6333673776"/>
    <nd ref="6333673775"/>
    <nd ref="6333673774"/>
    <nd ref="6333673773"/>
    <nd ref="6333673772"/>
    <nd ref="6333673771"/>
    <nd ref="6333673770"/>
    <tag k="highway" v="residential"/>
  </way>
  <way id="676318043">
    <nd ref="6333673782"/>
    <nd ref="7800128775"/>
    <nd ref="7800128782"/>
    <nd ref="6333673781"/>
    <tag k="highway" v="residential"/>
  </way>
  <way id="676318044">
    <nd ref="6333674486"/>
    <nd ref="6333673782"/>
    <nd ref="6333673764"/>
    <nd ref="7169973365"/>
    <nd ref="6333674485"/>
    <nd ref="6333673784"/>
    <nd ref="6333673783"/>
    <nd ref="6333673759"/>
    <nd ref="7800128777"/>
    <nd ref="6333673769"/>
    <nd ref="6333673767"/>
    <nd ref="6333673768"/>
    <tag k="highway" v="residential"/>
  </way>
  <way id="696139676">
    <nd ref="3226679695"/>
    <nd ref="6537017536"/>
    <nd ref="6537017533"/>
    <nd ref="6537017529"/>
    <nd ref="6537017535"/>
    <nd ref="6537017526"/>
    <nd ref="6537017527"/>
    <nd ref="6537017520"/>
    <nd ref="6537017523"/>
    <nd ref="415886016"/>
    <tag k="highway" v="residential"/>
  </way>
  <way id="696139678">
    <nd ref="5987972413"/>
    <nd ref="6537017544"/>
    <nd ref="6537017543"/>
    <nd ref="6537017542"/>
    <nd ref="6537017541"/>
    <nd ref="1992030325"/>
    <tag k="highway" v="service"/>
  </way>
  <way id="696309015">
    <nd ref="6538835814"/>
    <nd ref="6538835813"/>
    <nd ref="6538835812"/>
    <nd ref="6538835811"/>
    <tag k="highway" v="residential"/>
  </way>
  <way id="721807867">
    <nd ref="6771100254"/>
    <nd ref="6771100253"/>
    <nd ref="6771100252"/>
    <nd ref="6771100251"/>
    <nd ref="6771100250"/>
    <nd ref="6771100249"/>
    <nd ref="6771100248"/>
    <nd ref="7800429659"/>
    <tag k="highway" v="residential"/>
  </way>
  <way id="721807868">
    <nd ref="6771100257"/>
    <nd ref="6771100256"/>
    <nd ref="6771100254"/>
    <nd ref="12965695124"/>
    <nd ref="6771100255"/>
    <tag k="highway" v="residential"/>
  </way>
  <way id="755074014">
    <nd ref="7053543070"/>
    <nd ref="7053543069"/>
    <nd ref="7053543068"/>
    <nd ref="7053543067"/>
    <nd ref="7053543066"/>
    <nd ref="7053543065"/>
    <tag k="highway" v="service"/>
  </way>
  <way id="767926888">
    <nd ref="7169973364"/>
    <nd ref="7169973363"/>
    <nd ref="7169973362"/>
    <nd ref="7800136587"/>
    <nd ref="7169973361"/>
    <nd ref="7169973360"/>
    <nd ref="7169973375"/>
    <tag k="highway" v="residential"/>
  </way>
  <way id="767926889">
    <nd ref="7169973371"/>
    <nd ref="7169973369"/>
    <nd ref="7169973368"/>
    <nd ref="7169973367"/>
    <nd ref="7169973366"/>
    <nd ref="7169973364"/>
    <nd ref="7169973365"/>
    <tag k="highway" v="residential"/>
  </way>
  <way id="767926890">
    <nd ref="7169973372"/>
    <nd ref="7169973371"/>
    <nd ref="7169973370"/>
    <tag k="highway" v="residential"/>
  </way>
  <way id="767926891">
    <nd ref="7169973379"/>
    <nd ref="7169973372"/>
    <nd ref="7169973378"/>
    <nd ref="7169973377"/>
    <nd ref="7169973376"/>
    <nd ref="7169973375"/>
    <nd ref="7169973374"/>
    <tag k="highway" v="residential"/>
  </way>
  <way id="833804646">
    <nd ref="7783554896"/>
    <nd ref="7783554895"/>
    <tag k="highway" v="residential"/>
    <tag k="source" v="digitalglobe"/>
  </way>
  <way id="833804647">
    <nd ref="7783554898"/>
    <nd ref="7783554897"/>
    <tag k="highway" v="residential"/>
    <tag k="source" v="digitalglobe"/>
  </way>
  <way id="833804648">
    <nd ref="7783554903"/>
    <nd ref="7783554902"/>
    <nd ref="7783554899"/>
    <tag k="highway" v="residential"/>
    <tag k="source" v="digitalglobe"/>
  </way>
  <way id="833804649">
    <nd ref="7783554902"/>
    <nd ref="7783554898"/>
    <nd ref="7783554896"/>
    <nd ref="7783554901"/>
    <nd ref="7783554894"/>
    <nd ref="7783554893"/>
    <nd ref="7783554892"/>
    <nd ref="7783554891"/>
    <nd ref="7783554900"/>
    <tag k="highway" v="residential"/>
    <tag k="source" v="digitalglobe"/>
  </way>
  <way id="835644846">
    <nd ref="7799867018"/>
    <nd ref="7799867008"/>
    <nd ref="7799867010"/>
    <nd ref="7799866998"/>
    <nd ref="7799867025"/>
    <tag k="highway" v="residential"/>
    <tag k="source" v="digitalglobe"/>
  </way>
  <way id="835647673">
    <nd ref="10129511460"/>
    <nd ref="7799898985"/>
    <tag k="highway" v="residential"/>
    <tag k="source" v="digitalglobe"/>
  </way>
  <way id="835647674">
    <nd ref="7799899017"/>
    <nd ref="7799897265"/>
    <nd ref="7799897264"/>
    <nd ref="7799897263"/>
    <nd ref="7799898991"/>
    <nd ref="10578525477"/>
    <nd ref="10578525483"/>
    <nd ref="7799899003"/>
    <nd ref="11242833749"/>
    <nd ref="11242833747"/>
    <tag k="highway" v="residential"/>
    <tag k="source" v="digitalglobe"/>
    <tag k="surface" v="unpaved"/>
  </way>
  <way id="835647675">
    <nd ref="7799899020"/>
    <nd ref="7799899013"/>
    <nd ref="7799898997"/>
    <nd ref="7799899004"/>
    <tag k="highway" v="residential"/>
    <tag k="source" v="digitalglobe"/>
  </way>
  <way id="835647680">
    <nd ref="7799899010"/>
    <nd ref="11675772007"/>
    <nd ref="7799899004"/>
    <nd ref="7799899012"/>
    <tag k="highway" v="residential"/>
    <tag k="source" v="digitalglobe"/>
  </way>
  <way id="835647681">
    <nd ref="1145834336"/>
    <nd ref="7805675297"/>
    <nd ref="7805675298"/>
    <nd ref="7805675299"/>
    <nd ref="7805675300"/>
    <nd ref="7799898999"/>
    <nd ref="7799899006"/>
    <nd ref="10129511461"/>
    <tag k="highway" v="residential"/>
    <tag k="source" v="digitalglobe"/>
  </way>
  <way id="835647683">
    <nd ref="10129511462"/>
    <nd ref="7799899019"/>
    <nd ref="7799898993"/>
    <tag k="highway" v="residential"/>
    <tag k="source" v="digitalglobe"/>
  </way>
  <way id="835671661">
    <nd ref="7800136602"/>
    <nd ref="12054466085"/>
    <nd ref="6333673763"/>
    <tag k="highway" v="residential"/>
    <tag k="source" v="digitalglobe"/>
  </way>
  <way id="835671662">
    <nd ref="7800136586"/>
    <nd ref="7800128775"/>
    <nd ref="7800136597"/>
    <tag k="highway" v="residential"/>
    <tag k="source" v="digitalglobe"/>
  </way>
  <way id="835671665">
    <nd ref="7800128781"/>
    <nd ref="7800136601"/>
    <nd ref="7800128783"/>
    <nd ref="6333673768"/>
    <tag k="highway" v="residential"/>
    <tag k="source" v="digitalglobe"/>
  </way>
  <way id="835671668">
    <nd ref="11045715043"/>
    <nd ref="7800128782"/>
    <nd ref="10026196438"/>
    <tag k="highway" v="residential"/>
    <tag k="source" v="digitalglobe"/>
  </way>
  <way id="835697572">
    <nd ref="6817206389"/>
    <nd ref="7800383312"/>
    <tag k="highway" v="residential"/>
    <tag k="source" v="digitalglobe"/>
  </way>
  <way id="835703037">
    <nd ref="7800429646"/>
    <nd ref="7800429645"/>
    <nd ref="7800429644"/>
    <tag k="highway" v="residential"/>
    <tag k="source" v="digitalglobe"/>
  </way>
  <way id="1046062574">
    <nd ref="6333673778"/>
    <nd ref="9619977431"/>
    <tag k="highway" v="residential"/>
    <tag k="source" v="maxar"/>
  </way>
  <way id="1080757453">
    <nd ref="30037912"/>
    <nd ref="30037913"/>
    <nd ref="1123425350"/>
    <nd ref="1123425724"/>
    <nd ref="30037914"/>
    <nd ref="11242833755"/>
    <nd ref="7799747066"/>
    <nd ref="11242833753"/>
    <nd ref="7799899000"/>
    <nd ref="9864953580"/>
    <nd ref="1145834074"/>
    <nd ref="9864953578"/>
    <nd ref="12637902934"/>
    <nd ref="13293884898"/>
    <nd ref="11243148513"/>
    <nd ref="5793778742"/>
    <nd ref="5793778734"/>
    <nd ref="415884754"/>
    <nd ref="7799821504"/>
    <nd ref="7799821492"/>
    <nd ref="7799821496"/>
    <nd ref="7799813178"/>
    <nd ref="13293910891"/>
    <nd ref="7151629409"/>
    <nd ref="9971685227"/>
    <nd ref="9971685228"/>
    <nd ref="9971685229"/>
    <nd ref="11399819989"/>
    <nd ref="792399080"/>
    <nd ref="6802783151"/>
    <tag k="dual_carriageway" v="yes"/>
    <tag k="highway" v="trunk"/>
    <tag k="lanes" v="4"/>
    <tag k="motorroad" v="no"/>
    <tag k="name" v="Grand Southern Trunk Road"/>
    <tag k="name:ta" v="மாபெரும் தெற்கு வழித்தடம்"/>
    <tag k="name:ur" v="گرینڈ سدرن ٹرنک روڈ"/>
    <tag k="oneway" v="yes"/>
    <tag k="ref" v="NH32"/>
    <tag k="ref:old" v="NH45"/>
    <tag k="surface" v="asphalt"/>
  </way>
  <way id="1094684773">
    <nd ref="7800128780"/>
    <nd ref="6333673769"/>
    <tag k="highway" v="residential"/>
    <tag k="source" v="digitalglobe"/>
  </way>
  <way id="1096879157">
    <nd ref="1145835061"/>
    <nd ref="6333673704"/>
    <nd ref="7799899020"/>
    <nd ref="6333673700"/>
    <nd ref="1145834912"/>
    <nd ref="7799867018"/>
    <nd ref="7800429646"/>
    <tag k="highway" v="residential"/>
  </way>
  <way id="1134736927">
    <nd ref="10578525477"/>
    <nd ref="11409312000"/>
    <nd ref="10578525479"/>
    <nd ref="10578525478"/>
    <tag k="access" v="private"/>
    <tag k="highway" v="service"/>
  </way>
  <way id="1134736928">
    <nd ref="10578525479"/>
    <nd ref="10578525480"/>
    <nd ref="10578525481"/>
    <nd ref="10578525482"/>
    <tag k="access" v="private"/>
    <tag k="highway" v="service"/>
  </way>
  <way id="1134736929">
    <nd ref="10578525483"/>
    <nd ref="11409273230"/>
    <nd ref="10578525484"/>
    <nd ref="10578525485"/>
    <nd ref="10578525486"/>
    <nd ref="10578525487"/>
    <tag k="access" v="private"/>
    <tag k="highway" v="service"/>
  </way>
  <way id="1134736930">
    <nd ref="10578525484"/>
    <nd ref="10578525488"/>
    <tag k="access" v="private"/>
    <tag k="highway" v="service"/>
  </way>
  <way id="1213504286">
    <nd ref="11242833747"/>
    <nd ref="1145836206"/>
    <tag k="highway" v="tertiary"/>
    <tag k="oneway" v="yes"/>
  </way>
  <way id="1213504287">
    <nd ref="13293924235"/>
    <nd ref="13293924234"/>
    <nd ref="13293924233"/>
    <nd ref="13293924232"/>
    <nd ref="13293924231"/>
    <nd ref="13293924230"/>
    <nd ref="13293924229"/>
    <nd ref="13293924228"/>
    <nd ref="13293924225"/>
    <nd ref="13293924226"/>
    <nd ref="13293924224"/>
    <nd ref="13293924223"/>
    <nd ref="13293924222"/>
    <nd ref="13293924221"/>
    <nd ref="13293924220"/>
    <nd ref="13293924219"/>
    <nd ref="11242833750"/>
    <nd ref="11242833748"/>
    <nd ref="11242833754"/>
    <nd ref="13327815745"/>
    <nd ref="11242833747"/>
    <tag k="highway" v="tertiary"/>
    <tag k="oneway" v="yes"/>
  </way>
  <way id="1213504289">
    <nd ref="11242833754"/>
    <nd ref="11242833755"/>
    <tag k="highway" v="trunk_link"/>
  </way>
  <way id="1255910886">
    <nd ref="6333673704"/>
    <nd ref="11675771998"/>
    <nd ref="11675771999"/>
    <nd ref="11675772000"/>
    <nd ref="11675772001"/>
    <nd ref="11675772002"/>
    <nd ref="11675772003"/>
    <nd ref="11675772004"/>
    <nd ref="11675772005"/>
    <nd ref="11675772006"/>
    <nd ref="11675772007"/>
    <tag k="highway" v="residential"/>
  </way>
  <way id="1255910887">
    <nd ref="6333673704"/>
    <nd ref="11675772008"/>
    <nd ref="11675772009"/>
    <nd ref="11675772010"/>
    <nd ref="11675772011"/>
    <nd ref="11675772012"/>
    <tag k="highway" v="residential"/>
  </way>
  <way id="1449305539">
    <nd ref="13293924226"/>
    <nd ref="13293924227"/>
    <tag k="highway" v="trunk_link"/>
  </way>
  <way id="1450294483">
    <nd ref="13301680066"/>
    <nd ref="13301680067"/>
    <tag k="highway" v="residential"/>
  </way>
  <way id="1453289452">
    <nd ref="13327815744"/>
    <nd ref="13327815746"/>
    <nd ref="13327815745"/>
    <tag k="highway" v="service"/>
  </way>
  <way id="1453289453">
    <nd ref="13327815746"/>
    <nd ref="13327815747"/>
    <nd ref="13327815748"/>
    <tag k="highway" v="service"/>
  </way>

</osm>
