{
  "type": "FeatureCollection",
  "crs": {
    "type": "name",
    "properties": {
      "name": "EPSG:4326"
    }
  },
  "features": [
    {
      "type": "Feature",
      "properties": {
        "source": "sam2",
        "kind": "road_surface"
      },
      "geometry": {
        "type": "Polygon",
        "coordinates": [
          [
            [
              80.03952026367188,
              12.825040285087224
            ],
            [
              80.039541721344,
              12.825040285087224
            ],
            [
              80.03956317901611,
              12.824961826241928
            ],
            [
              80.03958463668823,
              12.827231892281437
            ],
            [
              80.03960609436035,
              12.82507689920666
            ],
            [
              80.03962755203247,
              12.825191972118777
            ],
            [
              80.03964900970459,
              12.827378347451765
            ],
            [
              80.03967046737671,
              12.825254739139572
            ],
            [
              80.03969192504883,
              12.82518151094712
            ],
            [
              80.03971338272095,
              12.82506120744184
            ],
            [
              80.03973484039307,
              12.825108282733364
            ],
            [
              80.03975629806519,
              12.825333197893555
            ],
            [
              80.0397777557373,
              12.825401195460554
            ],
            [
              80.03979921340942,
              12.827817712451308
            ],
            [
              80.03982067108154,
              12.825406426041871
            ],
            [
              80.03984212875366,
              12.825223355631131
            ],
            [
              80.03986358642578,
              12.825401195460554
            ],
            [
              80.0398850440979,
              12.825333197893555
            ],
            [
              80.03990650177002,
              12.825348889641417
            ],
            [
              80.03992795944214,
              12.825626110358973
            ],
            [
              80.03994941711426,
              12.82774448500466
            ],
            [
              80.03997087478638,
              12.825631340935617
            ],
            [
              80.0399923324585,
              12.825479654168879
            ],
            [
              80.04001379013062,
              12.825484884748565
            ],
            [
              80.04003524780273,
              12.82554765169631
            ],
            [
              80.04005670547485,
              12.82555288227458
            ],
            [
              80.04007816314697,
              12.825568574008745
            ],
            [
              80.04009962081909,
              12.827817712451308
            ],
            [
              80.04012107849121,
              12.825845794484312
            ],
            [
              80.04014253616333,
              12.82535412022382
            ],
            [
              80.04016399383545,
              12.825699338422062
            ],
            [
              80.04018545150757,
              12.825699338422062
            ],
            [
              80.04020690917969,
              12.82577256646384
            ],
            [
              80.0402283668518,
              12.82555288227458
            ],
            [
              80.04024982452393,
              12.826070708985393
            ],
            [
              80.04027128219604,
              12.826060247850265
            ],
            [
              80.04029273986816,
              12.825919022483479
            ],
            [
              80.04031419754028,
              12.825929483624476
            ],
            [
              80.0403356552124,
              12.82593994476504
            ],
            [
              80.04035711288452,
              12.825987019892192
            ],
            [
              80.04037857055664,
              12.825913791912818
            ],
            [
              80.04040002822876,
              12.826285162159682
            ],
            [
              80.04042148590088,
              12.826070708985393
            ],
            [
              80.040442943573,
              12.826091631254343
            ],
            [
              80.04046440124512,
              12.826107322954915
            ],
            [
              80.04048585891724,
              12.826091631254343
            ],
            [
              80.04050731658936,
              12.826211934267056
            ],
            [
              80.04052877426147,
              12.826075939552794
            ],
            [
              80.0405502319336,
              12.826499615151219
            ],
            [
              80.04057168960571,
              12.826253778779737
            ],
            [
              80.04059314727783,
              12.826358390030997
            ],
            [
              80.04061460494995,
              12.827817712451308
            ],
            [
              80.04063606262207,
              12.827817712451308
            ],
            [
              80.04065752029419,
              12.827791559794239
            ],
            [
              80.04067897796631,
              12.827791559794239
            ],
            [
              80.04070043563843,
              12.827791559794239
            ],
            [
              80.04072189331055,
              12.82652053738451
            ],
            [
              80.04074335098267,
              12.826546690173679
            ],
            [
              80.04076480865479,
              12.826572842960129
            ],
            [
              80.0407862663269,
              12.826557151288586
            ],
            [
              80.04080772399902,
              12.826792526259016
            ],
            [
              80.04082918167114,
              12.826656531858509
            ],
            [
              80.04085063934326,
              12.826724529067949
            ],
            [
              80.04087209701538,
              12.82671929851403
            ],
            [
              80.0408935546875,
              12.826792526259016
            ],
            [
              80.04091501235962,
              12.827676488070834
            ],
            [
              80.04093647003174,
              12.827671257536704
            ],
            [
              80.04095792770386,
              12.827608491118633
            ],
            [
              80.04097938537598,
              12.827624182724618
            ],
            [
              80.0410008430481,
              12.827639874329625
            ],
            [
              80.04102230072021,
              12.826965134430742
            ],
            [
              80.04104375839233,
              12.826975595528252
            ],
            [
              80.04106521606445,
              12.826986056625328
            ],
            [
              80.04108667373657,
              12.827598030047435
            ],
            [
              80.04110813140869,
              12.827231892281437
            ],
            [
              80.04112958908081,
              12.827101128664467
            ],
            [
              80.04115104675293,
              12.827608491118633
            ],
            [
              80.04117250442505,
              12.827148203574403
            ],
            [
              80.04119396209717,
              12.827127281393299
            ],
            [
              80.04121541976929,
              12.827451575004964
            ],
            [
              80.0412368774414,
              12.827451575004964
            ],
            [
              80.04125833511353,
              12.827305119877254
            ],
            [
              80.04127979278564,
              12.827310350419
            ],
            [
              80.04130125045776,
              12.82774448500466
            ],
            [
              80.04132270812988,
              12.827394039072102
            ],
            [
              80.041344165802,
              12.827399269611997
            ],
            [
              80.04136562347412,
              12.827273736624514
            ],
            [
              80.04138708114624,
              12.827278967166908
            ],
            [
              80.04140853881836,
              12.827530033074032
            ],
            [
              80.04142999649048,
              12.827530033074032
            ],
            [
              80.0414514541626,
              12.827781098730648
            ],
            [
              80.04147291183472,
              12.827561416294808
            ],
            [
              80.04149436950684,
              12.827420191770488
            ],
            [
              80.04151582717896,
              12.827561416294808
            ],
            [
              80.04153728485107,
              12.827425422309839
            ],
            [
              80.0415587425232,
              12.82774448500466
            ],
            [
              80.04158020019531,
              12.827754946069772
            ],
            [
              80.04160165786743,
              12.827807251388807
            ],
            [
              80.04162311553955,
              12.827822942982396
            ],
            [
              80.04164457321167,
              12.827822942982396
            ],
            [
              80.04166603088379,
              12.827713101806717
            ],
            [
              80.04168748855591,
              12.827713101806717
            ],
            [
              80.04170894622803,
              12.827828173513376
            ],
            [
              80.04173040390015,
              12.827828173513376
            ],
            [
              80.04175186157227,
              12.827870017757295
            ],
            [
              80.04177331924438,
              12.827822942982396
            ],
            [
              80.0417947769165,
              12.827828173513376
            ],
            [
              80.04181623458862,
              12.82771833233998
            ],
            [
              80.04183769226074,
              12.82771833233998
            ],
            [
              80.04185914993286,
              12.827833404044247
            ],
            [
              80.04188060760498,
              12.827828173513376
            ],
            [
              80.0419020652771,
              12.827807251388807
            ],
            [
              80.04192352294922,
              12.827828173513376
            ],
            [
              80.04194498062134,
              12.827828173513376
            ],
            [
              80.04196643829346,
              12.827728793406179
            ],
            [
              80.04198789596558,
              12.82774448500466
            ],
            [
              80.0420093536377,
              12.827833404044247
            ],
            [
              80.04203081130981,
              12.827833404044247
            ],
            [
              80.04205226898193,
              12.827822942982396
            ],
            [
              80.04207372665405,
              12.827833404044247
            ],
            [
              80.04209518432617,
              12.827828173513376
            ],
            [
              80.04211664199829,
              12.827739254471942
            ],
            [
              80.04213809967041,
              12.82774448500466
            ],
            [
              80.04215955734253,
              12.827833404044247
            ],
            [
              80.04218101501465,
              12.827833404044247
            ],
            [
              80.04220247268677,
              12.827802020857392
            ],
            [
              80.04222393035889,
              12.827822942982396
            ],
            [
              80.042245388031,
              12.827828173513376
            ],
            [
              80.04226684570312,
              12.827791559794239
            ],
            [
              80.04228830337524,
              12.827807251388807
            ],
            [
              80.04230976104736,
              12.827833404044247
            ],
            [
              80.04233121871948,
              12.827843865105661
            ],
            [
              80.0423526763916,
              12.827870017757295
            ],
            [
              80.04237413406372,
              12.827870017757295
            ],
            [
              80.04239559173584,
              12.827870017757295
            ],
            [
              80.04241704940796,
              12.827870017757295
            ],
            [
              80.04243850708008,
              12.827870017757295
            ],
            [
              80.0424599647522,
              12.827870017757295
            ],
            [
              80.04248142242432,
              12.827870017757295
            ],
            [
              80.04250288009644,
              12.827870017757295
            ],
            [
              80.04252433776855,
              12.827870017757295
            ],
            [
              80.04254579544067,
              12.827870017757295
            ],
            [
              80.0425672531128,
              12.827870017757295
            ],
            [
              80.04258871078491,
              12.827870017757295
            ],
            [
              80.04261016845703,
              12.827870017757295
            ],
            [
              80.04263162612915,
              12.827870017757295
            ],
            [
              80.04265308380127,
              12.827870017757295
            ],
            [
              80.04267454147339,
              12.827870017757295
            ],
            [
              80.04269599914551,
              12.827870017757295
            ],
            [
              80.04271745681763,
              12.827870017757295
            ],
            [
              80.04273891448975,
              12.827870017757295
            ],
            [
              80.04276037216187,
              12.827870017757295
            ],
            [
              80.04278182983398,
              12.827870017757295
            ],
            [
              80.0428032875061,
              12.827870017757295
            ],
            [
              80.04282474517822,
              12.827870017757295
            ],
            [
              80.04284620285034,
              12.827870017757295
            ],
            [
              80.04286766052246,
              12.827870017757295
            ],
            [
              80.04288911819458,
              12.827870017757295
            ],
            [
              80.0429105758667,
              12.827870017757295
            ],
            [
              80.04293203353882,
              12.827870017757295
            ],
            [
              80.04295349121094,
              12.827870017757295
            ],
            [
              80.04297494888306,
              12.827870017757295
            ],
            [
              80.04299640655518,
              12.827870017757295
            ],
            [
              80.0430178642273,
              12.827870017757295
            ],
            [
              80.04303932189941,
              12.827870017757295
            ],
            [
              80.04306077957153,
              12.827870017757295
            ],
            [
              80.04308223724365,
              12.827870017757295
            ],
            [
              80.04310369491577,
              12.827870017757295
            ],
            [
              80.04312515258789,
              12.827870017757295
            ],
            [
              80.04314661026001,
              12.827870017757295
            ],
            [
              80.04316806793213,
              12.827870017757295
            ],
            [
              80.04329681396484,
              12.827870017757295
            ],
            [
              80.0433611869812,
              12.827843865105661
            ],
            [
              80.04338264465332,
              12.827828173513376
            ],
            [
              80.04342555999756,
              12.82783863457501
            ],
            [
              80.04344701766968,
              12.827870017757295
            ],
            [
              80.0434684753418,
              12.827833404044247
            ],
            [
              80.04348993301392,
              12.827817712451308
            ],
            [
              80.04351139068604,
              12.827807251388807
            ],
            [
              80.04353284835815,
              12.82771833233998
            ],
            [
              80.04357576370239,
              12.827707871273343
            ],
            [
              80.04359722137451,
              12.827870017757295
            ],
            [
              80.04361867904663,
              12.827666027002461
            ],
            [
              80.04364013671875,
              12.827639874329625
            ],
            [
              80.04366159439087,
              12.827629413259729
            ],
            [
              80.04368305206299,
              12.82759279951167
            ],
            [
              80.04370450973511,
              12.827577107903728
            ],
            [
              80.04372596740723,
              12.827571877367529
            ],
            [
              80.04374742507935,
              12.827566646831222
            ],
            [
              80.04376888275146,
              12.82750911092467
            ],
            [
              80.04379034042358,
              12.827488188773573
            ],
            [
              80.0438117980957,
              12.827462036082252
            ],
            [
              80.04383325576782,
              12.827420191770488
            ],
            [
              80.04385471343994,
              12.827414961231028
            ],
            [
              80.04387617111206,
              12.827425422309839
            ],
            [
              80.04389762878418,
              12.827425422309839
            ],
            [
              80.0439190864563,
              12.827414961231028
            ],
            [
              80.04394054412842,
              12.827383577991984
            ],
            [
              80.04396200180054,
              12.827357425289794
            ],
            [
              80.04398345947266,
              12.827305119877254
            ],
            [
              80.04443407058716,
              12.827692179672578
            ],
            [
              80.04445552825928,
              12.827870017757295
            ],
            [
              80.0444769859314,
              12.827828173513376
            ],
            [
              80.04460573196411,
              12.827535263611098
            ],
            [
              80.04473447799683,
              12.827530033074032
            ],
            [
              80.04475593566895,
              12.827535263611098
            ],
            [
              80.04490613937378,
              12.827530033074032
            ],
            [
              80.04505634307861,
              12.827524802536853
            ],
            [
              80.04524946212769,
              12.827561416294808
            ],
            [
              80.04531383514404,
              12.827707871273343
            ],
            [
              80.04533529281616,
              12.827828173513376
            ],
            [
              80.04535675048828,
              12.827843865105661
            ],
            [
              80.04855394363403,
              12.82712205084775
            ],
            [
              80.04861831665039,
              12.827686949138773
            ],
            [
              80.04872560501099,
              12.827414961231028
            ],
            [
              80.0487470626831,
              12.827414961231028
            ],
            [
              80.04876852035522,
              12.827394039072102
            ],
            [
              80.04878997802734,
              12.827378347451765
            ],
            [
              80.04881143569946,
              12.82733650312608
            ],
            [
              80.04883289337158,
              12.827273736624514
            ],
            [
              80.0488543510437,
              12.827273736624514
            ],
            [
              80.04906892776489,
              12.82712205084775
            ],
            [
              80.04906892776489,
              12.827116820302093
            ],
            [
              80.0488543510437,
              12.827252814453843
            ],
            [
              80.04883289337158,
              12.827263275539394
            ],
            [
              80.04881143569946,
              12.827273736624514
            ],
            [
              80.04878997802734,
              12.827367886370997
            ],
            [
              80.04876852035522,
              12.827357425289794
            ],
            [
              80.0487470626831,
              12.827373116911435
            ],
            [
              80.04872560501099,
              12.827388808532097
            ],
            [
              80.04861831665039,
              12.82712205084775
            ],
            [
              80.04855394363403,
              12.82712205084775
            ],
            [
              80.04535675048828,
              12.827728793406179
            ],
            [
              80.04533529281616,
              12.827681718604858
            ],
            [
              80.04531383514404,
              12.827556185758283
            ],
            [
              80.04524946212769,
              12.827561416294808
            ],
            [
              80.04505634307861,
              12.827524802536853
            ],
            [
              80.04490613937378,
              12.82751957199957
            ],
            [
              80.04475593566895,
              12.827524802536853
            ],
            [
              80.04473447799683,
              12.827524802536853
            ],
            [
              80.04460573196411,
              12.827524802536853
            ],
            [
              80.0444769859314,
              12.82740973069146
            ],
            [
              80.04445552825928,
              12.827158664664305
            ],
            [
              80.04443407058716,
              12.827231892281437
            ],
            [
              80.04398345947266,
              12.826483923475108
            ],
            [
              80.04396200180054,
              12.82619101200811
            ],
            [
              80.04394054412842,
              12.826640840192184
            ],
            [
              80.0439190864563,
              12.82713774248407
            ],
            [
              80.04389762878418,
              12.82710635921045
            ],
            [
              80.04387617111206,
              12.82710635921045
            ],
            [
              80.04385471343994,
              12.82740973069146
            ],
            [
              80.04383325576782,
              12.827101128664467
            ],
            [
              80.0438117980957,
              12.827074975932922
            ],
            [
              80.04379034042358,
              12.82708020647945
            ],
            [
              80.04376888275146,
              12.827074975932922
            ],
            [
              80.04374742507935,
              12.82694944278366
            ],
            [
              80.04372596740723,
              12.827488188773573
            ],
            [
              80.04370450973511,
              12.82750911092467
            ],
            [
              80.04368305206299,
              12.82750388038706
            ],
            [
              80.04366159439087,
              12.82750388038706
            ],
            [
              80.04364013671875,
              12.827535263611098
            ],
            [
              80.04361867904663,
              12.827550955221652
            ],
            [
              80.04359722137451,
              12.8268029873637
            ],
            [
              80.04357576370239,
              12.827603260583087
            ],
            [
              80.04353284835815,
              12.827655565933654
            ],
            [
              80.04351139068604,
              12.82764510486441
            ],
            [
              80.04348993301392,
              12.827666027002461
            ],
            [
              80.0434684753418,
              12.827692179672578
            ],
            [
              80.04344701766968,
              12.82740973069146
            ],
            [
              80.04342555999756,
              12.82776540713445
            ],
            [
              80.04338264465332,
              12.827807251388807
            ],
            [
              80.0433611869812,
              12.827802020857392
            ],
            [
              80.04329681396484,
              12.827833404044247
            ],
            [
              80.04316806793213,
              12.82785432616664
            ],
            [
              80.04314661026001,
              12.827828173513376
            ],
            [
              80.04312515258789,
              12.827822942982396
            ],
            [
              80.04310369491577,
              12.827822942982396
            ],
            [
              80.04308223724365,
              12.827770637666625
            ],
            [
              80.04306077957153,
              12.827749715537271
            ],
            [
              80.04303932189941,
              12.827723562873134
            ],
            [
              80.0430178642273,
              12.827702640739863
            ],
            [
              80.04299640655518,
              12.827666027002461
            ],
            [
              80.04297494888306,
              12.827671257536704
            ],
            [
              80.04295349121094,
              12.827697410206277
            ],
            [
              80.04293203353882,
              12.827629413259729
            ],
            [
              80.0429105758667,
              12.82761372165407
            ],
            [
              80.04288911819458,
              12.82761372165407
            ],
            [
              80.04286766052246,
              12.827603260583087
            ],
            [
              80.04284620285034,
              12.827556185758283
            ],
            [
              80.04282474517822,
              12.827561416294808
            ],
            [
              80.0428032875061,
              12.827676488070834
            ],
            [
              80.04278182983398,
              12.827545724684908
            ],
            [
              80.04276037216187,
              12.827488188773573
            ],
            [
              80.04273891448975,
              12.827530033074032
            ],
            [
              80.04271745681763,
              12.827514341462175
            ],
            [
              80.04269599914551,
              12.827399269611997
            ],
            [
              80.04267454147339,
              12.827399269611997
            ],
            [
              80.04265308380127,
              12.82740973069146
            ],
            [
              80.04263162612915,
              12.827404500151783
            ],
            [
              80.04261016845703,
              12.82733650312608
            ],
            [
              80.04258871078491,
              12.827305119877254
            ],
            [
              80.0425672531128,
              12.827284197709195
            ],
            [
              80.04254579544067,
              12.827252814453843
            ],
            [
              80.04252433776855,
              12.827252814453843
            ],
            [
              80.04250288009644,
              12.827263275539394
            ],
            [
              80.04248142242432,
              12.8272371228247
            ],
            [
              80.0424599647522,
              12.827190047931401
            ],
            [
              80.04243850708008,
              12.827190047931401
            ],
            [
              80.04241704940796,
              12.827174356298341
            ],
            [
              80.04239559173584,
              12.82710635921045
            ],
            [
              80.04237413406372,
              12.82710635921045
            ],
            [
              80.0423526763916,
              12.827116820302093
            ],
            [
              80.04233121871948,
              12.827095898118376
            ],
            [
              80.04230976104736,
              12.827054053745726
            ],
            [
              80.04228830337524,
              12.827043592651476
            ],
            [
              80.04226684570312,
              12.827033131556792
            ],
            [
              80.042245388031,
              12.82697036497955
            ],
            [
              80.04222393035889,
              12.826965134430742
            ],
            [
              80.04220247268677,
              12.82697036497955
            ],
            [
              80.04218101501465,
              12.826954673332796
            ],
            [
              80.04215955734253,
              12.826918059486557
            ],
            [
              80.04213809967041,
              12.826897137286316
            ],
            [
              80.04211664199829,
              12.826886676185541
            ],
            [
              80.04209518432617,
              12.826823909571772
            ],
            [
              80.04207372665405,
              12.826818679019917
            ],
            [
              80.04205226898193,
              12.826823909571772
            ],
            [
              80.04203081130981,
              12.826808217915882
            ],
            [
              80.0420093536377,
              12.826771604048336
            ],
            [
              80.04198789596558,
              12.826755912389185
            ],
            [
              80.04196643829346,
              12.826740220729056
            ],
            [
              80.04194498062134,
              12.825401195460554
            ],
            [
              80.04192352294922,
              12.826677454078755
            ],
            [
              80.0419020652771,
              12.826672223523857
            ],
            [
              80.04188060760498,
              12.826661762413734
            ],
            [
              80.04185914993286,
              12.826630379080756
            ],
            [
              80.04183769226074,
              12.825484884748565
            ],
            [
              80.04181623458862,
              12.825479654168879
            ],
            [
              80.0417947769165,
              12.825490115328142
            ],
            [
              80.04177331924438,
              12.825505807066218
            ],
            [
              80.04175186157227,
              12.825511037645361
            ],
            [
              80.04173040390015,
              12.825620879782225
            ],
            [
              80.04170894622803,
              12.825610418628399
            ],
            [
              80.04168748855591,
              12.82579348875758
            ],
            [
              80.04166603088379,
              12.82593994476504
            ],
            [
              80.04164457321167,
              12.825751644168363
            ],
            [
              80.04162311553955,
              12.826368851153731
            ],
            [
              80.04160165786743,
              12.82609686182131
            ],
            [
              80.04158020019531,
              12.826347928907829
            ],
            [
              80.0415587425232,
              12.8263060844108
            ],
            [
              80.04153728485107,
              12.826290392722624
            ],
            [
              80.04151582717896,
              12.826081170120085
            ],
            [
              80.04149436950684,
              12.826075939552794
            ],
            [
              80.04147291183472,
              12.826091631254343
            ],
            [
              80.0414514541626,
              12.826232856524268
            ],
            [
              80.04142999649048,
              12.826196242573008
            ],
            [
              80.04140853881836,
              12.82618055087798
            ],
            [
              80.04138708114624,
              12.826091631254343
            ],
            [
              80.04136562347412,
              12.826070708985393
            ],
            [
              80.041344165802,
              12.818585655666789
            ],
            [
              80.04132270812988,
              12.818585655666789
            ],
            [
              80.04130125045776,
              12.826070708985393
            ],
            [
              80.04127979278564,
              12.826034095010545
            ],
            [
              80.04125833511353,
              12.819909025103918
            ],
            [
              80.0412368774414,
              12.825924253054032
            ],
            [
              80.04121541976929,
              12.825866716771962
            ],
            [
              80.04119396209717,
              12.821363154251465
            ],
            [
              80.04117250442505,
              12.825919022483479
            ],
            [
              80.04115104675293,
              12.825929483624476
            ],
            [
              80.04112958908081,
              12.825887639057875
            ],
            [
              80.04110813140869,
              12.821812991063762
            ],
            [
              80.04108667373657,
              12.825798719330741
            ],
            [
              80.04106521606445,
              12.825788258184309
            ],
            [
              80.04104375839233,
              12.825647032664888
            ],
            [
              80.04102230072021,
              12.825636571512149
            ],
            [
              80.0410008430481,
              12.825511037645361
            ],
            [
              80.04097938537598,
              12.825542421117927
            ],
            [
              80.04095792770386,
              12.819030266727822
            ],
            [
              80.04093647003174,
              12.82521812504601
            ],
            [
              80.04091501235962,
              12.818627501447176
            ],
            [
              80.0408935546875,
              12.81862227072501
            ],
            [
              80.04087209701538,
              12.818627501447176
            ],
            [
              80.04085063934326,
              12.81906688172139
            ],
            [
              80.04082918167114,
              12.825343659058902
            ],
            [
              80.04080772399902,
              12.818988421014367
            ],
            [
              80.0407862663269,
              12.825291353227808
            ],
            [
              80.04076480865479,
              12.82527566147636
            ],
            [
              80.04074335098267,
              12.818899498850188
            ],
            [
              80.04072189331055,
              12.818920421715172
            ],
            [
              80.04070043563843,
              12.82521289446078
            ],
            [
              80.04067897796631,
              12.821221926249258
            ],
            [
              80.04065752029419,
              12.818763500185408
            ],
            [
              80.04063606262207,
              12.818737346587605
            ],
            [
              80.04061460494995,
              12.81873211586772
            ],
            [
              80.04059314727783,
              12.818742577307384
            ],
            [
              80.04057168960571,
              12.8199456399697
            ],
            [
              80.0405502319336,
              12.824982748603066
            ],
            [
              80.04052877426147,
              12.824961826241928
            ],
            [
              80.04050731658936,
              12.81859088638972
            ],
            [
              80.04048585891724,
              12.824893828556222
            ],
            [
              80.04046440124512,
              12.82486767559529
            ],
            [
              80.040442943573,
              12.82137884624682
            ],
            [
              80.04042148590088,
              12.824773524913429
            ],
            [
              80.04040002822876,
              12.824763063724381
            ],
            [
              80.04037857055664,
              12.82473168015463
            ],
            [
              80.04035711288452,
              12.824715988368286
            ],
            [
              80.0403356552124,
              12.824668913003388
            ],
            [
              80.04031419754028,
              12.824627068227196
            ],
            [
              80.04029273986816,
              12.819359801478255
            ],
            [
              80.04027128219604,
              12.824559070451045
            ],
            [
              80.04024982452393,
              12.824485842056186
            ],
            [
              80.0402283668518,
              12.824480611455739
            ],
            [
              80.04020690917969,
              12.82443876664824
            ],
            [
              80.04018545150757,
              12.824433536046815
            ],
            [
              80.04016399383545,
              12.824428305445279
            ],
            [
              80.04014253616333,
              12.819349340064235
            ],
            [
              80.04012107849121,
              12.819359801478255
            ],
            [
              80.04009962081909,
              12.8242295425064
            ],
            [
              80.04007816314697,
              12.824156314015665
            ],
            [
              80.04005670547485,
              12.819359801478255
            ],
            [
              80.04003524780273,
              12.82420338947644
            ],
            [
              80.04001379013062,
              12.82421385068875
            ],
            [
              80.0399923324585,
              12.819213341642417
            ],
            [
              80.03997087478638,
              12.824114469154251
            ],
            [
              80.03994941711426,
              12.823926167191804
            ],
            [
              80.03992795944214,
              12.81906688172139
            ],
            [
              80.03990650177002,
              12.819045958868573
            ],
            [
              80.0398850440979,
              12.81902503601402
            ],
            [
              80.03986358642578,
              12.81901980530011
            ],
            [
              80.03984212875366,
              12.818967498155033
            ],
            [
              80.03982067108154,
              12.823910475355241
            ],
            [
              80.03979921340942,
              12.823847707999207
            ],
            [
              80.0397777557373,
              12.823826785543718
            ],
            [
              80.03975629806519,
              12.823790171242427
            ],
            [
              80.03973484039307,
              12.823779710012506
            ],
            [
              80.03971338272095,
              12.82378494062752
            ],
            [
              80.03969192504883,
              12.818758269466064
            ],
            [
              80.03967046737671,
              12.818758269466064
            ],
            [
              80.03964900970459,
              12.82349202601936
            ],
            [
              80.03962755203247,
              12.81877396162377
            ],
            [
              80.03960609436035,
              12.818695500825475
            ],
            [
              80.03958463668823,
              12.823622791511552
            ],
            [
              80.03956317901611,
              12.823497256640353
            ],
            [
              80.039541721344,
              12.818627501447176
            ],
            [
              80.03952026367188,
              12.81862227072501
            ],
            [
              80.03952026367188,
              12.825040285087224
            ]
          ]
        ]
      }
    }
  ]
}